"Longitude (x)","Latitude (y)","Station Name","Climate ID","Date/Time (LST)","Year","Month","Day","Time (LST)","Flag","Temp (°C)","Temp Flag","Dew Point Temp (°C)","Dew Point Temp Flag","Rel Hum (%)","Rel Hum Flag","Precip. Amount (mm)","Precip. Amount Flag","Wind Dir (10s deg)","Wind Dir Flag","Wind Spd (km/h)","Wind Spd Flag","Visibility (km)","Visibility Flag","Stn Press (kPa)","Stn Press Flag","Hmdx","Hmdx Flag","Wind Chill","Wind Chill Flag","Weather"
"-63.63","44.71","BEDFORD BASIN","8200573","2022-11-01 00:00","2022","11","01","00:00","","11.0","","9.4","","90","","","","23","","3","","","","101.72","","","","","","NA"
"-63.63","44.71","BEDFORD BASIN","8200573","2022-11-01 01:00","2022","11","01","01:00","","11.3","","8.5","","83","","","","26","","5","","","","101.69","","","","","","NA"
"-63.63","44.71","BEDFORD BASIN","8200573","2022-11-01 02:00","2022","11","01","02:00","","11.6","","8.4","","81","","","","26","","5","","","","101.69","","","","","","NA"
"-63.63","44.71","BEDFORD BASIN","8200573","2022-11-01 03:00","2022","11","01","03:00","","11.6","","8.5","","81","","","","26","","3","","","","101.69","","","","","","NA"
"-63.63","44.71","BEDFORD BASIN","8200573","2022-11-01 04:00","2022","11","01","04:00","","11.8","","9.0","","83","","","","","","0","","","","101.69","","","","","","NA"
"-63.63","44.71","BEDFORD BASIN","8200573","2022-11-01 05:00","2022","11","01","05:00","","12.0","","10.3","","90","","","","11","","4","","","","101.69","","","","","","NA"
"-63.63","44.71","BEDFORD BASIN","8200573","2022-11-01 06:00","2022","11","01","06:00","","11.9","","11.1","","95","","","","","","0","","","","101.66","","","","","","NA"
"-63.63","44.71","BEDFORD BASIN","8200573","2022-11-01 07:00","2022","11","01","07:00","","12.8","","11.4","","91","","","","15","","10","","","","101.65","","","","","","NA"
"-63.63","44.71","BEDFORD BASIN","8200573","2022-11-01 08:00","2022","11","01","08:00","","13.3","","12.3","","93","","","","14","","9","","","","101.66","","","","","","NA"
"-63.63","44.71","BEDFORD BASIN","8200573","2022-11-01 09:00","2022","11","01","09:00","","13.9","","12.6","","92","","","","14","","10","","","","101.65","","","","","","NA"
"-63.63","44.71","BEDFORD BASIN","8200573","2022-11-01 10:00","2022","11","01","10:00","","14.1","","14.0","","99","","","","15","","9","","","","101.59","","","","","","NA"
"-63.63","44.71","BEDFORD BASIN","8200573","2022-11-01 11:00","2022","11","01","11:00","","14.4","","14.4","","100","","","","15","","8","","","","101.56","","","","","","NA"
"-63.63","44.71","BEDFORD BASIN","8200573","2022-11-01 12:00","2022","11","01","12:00","","14.7","","14.7","","100","","","","19","","11","","","","101.47","","","","","","NA"
"-63.63","44.71","BEDFORD BASIN","8200573","2022-11-01 13:00","2022","11","01","13:00","","15.1","","15.1","","100","","","","20","","20","","","","101.39","","","","","","NA"
"-63.63","44.71","BEDFORD BASIN","8200573","2022-11-01 14:00","2022","11","01","14:00","","15.0","","15.0","","100","","","","19","","12","","","","101.32","","","","","","NA"
"-63.63","44.71","BEDFORD BASIN","8200573","2022-11-01 15:00","2022","11","01","15:00","","15.1","","15.1","","100","","","","21","","17","","","","101.29","","","","","","NA"
"-63.63","44.71","BEDFORD BASIN","8200573","2022-11-01 16:00","2022","11","01","16:00","","14.8","","14.8","","100","","","","22","","8","","","","101.21","","","","","","NA"
"-63.63","44.71","BEDFORD BASIN","8200573","2022-11-01 17:00","2022","11","01","17:00","","14.7","","14.7","","100","","","","20","","5","","","","101.22","","","","","","NA"
"-63.63","44.71","BEDFORD BASIN","8200573","2022-11-01 18:00","2022","11","01","18:00","","14.5","","14.5","","100","","","","17","","6","","","","101.23","","","","","","NA"
"-63.63","44.71","BEDFORD BASIN","8200573","2022-11-01 19:00","2022","11","01","19:00","","14.4","","14.3","","100","","","","22","","12","","","","101.24","","","","","","NA"
"-63.63","44.71","BEDFORD BASIN","8200573","2022-11-01 20:00","2022","11","01","20:00","","14.4","","14.4","","100","","","","","","0","","","","101.20","","","","","","NA"
"-63.63","44.71","BEDFORD BASIN","8200573","2022-11-01 21:00","2022","11","01","21:00","","14.6","","14.6","","100","","","","29","","4","","","","101.20","","","","","","NA"
"-63.63","44.71","BEDFORD BASIN","8200573","2022-11-01 22:00","2022","11","01","22:00","","14.6","","14.6","","100","","","","24","","9","","","","101.20","","","","","","NA"
"-63.63","44.71","BEDFORD BASIN","8200573","2022-11-01 23:00","2022","11","01","23:00","","14.3","","14.1","","99","","","","24","","5","","","","101.14","","","","","","NA"
"-63.63","44.71","BEDFORD BASIN","8200573","2022-11-02 00:00","2022","11","02","00:00","","14.0","","13.7","","98","","","","29","","5","","","","101.10","","","","","","NA"
"-63.63","44.71","BEDFORD BASIN","8200573","2022-11-02 01:00","2022","11","02","01:00","","13.4","","12.0","","91","","","","28","","16","","","","101.12","","","","","","NA"
"-63.63","44.71","BEDFORD BASIN","8200573","2022-11-02 02:00","2022","11","02","02:00","","12.9","","12.2","","96","","","","32","","6","","","","101.19","","","","","","NA"
"-63.63","44.71","BEDFORD BASIN","8200573","2022-11-02 03:00","2022","11","02","03:00","","12.5","","11.8","","95","","","","25","","4","","","","101.17","","","","","","NA"
"-63.63","44.71","BEDFORD BASIN","8200573","2022-11-02 04:00","2022","11","02","04:00","","11.5","","11.4","","99","","","","","","0","","","","101.21","","","","","","NA"
"-63.63","44.71","BEDFORD BASIN","8200573","2022-11-02 05:00","2022","11","02","05:00","","11.0","","11.0","","100","","","","","","0","","","","101.23","","","","","","NA"
"-63.63","44.71","BEDFORD BASIN","8200573","2022-11-02 06:00","2022","11","02","06:00","","10.7","","10.7","","100","","","","32","","7","","","","101.28","","","","","","NA"
"-63.63","44.71","BEDFORD BASIN","8200573","2022-11-02 07:00","2022","11","02","07:00","","11.1","","10.8","","98","","","","31","","15","","","","101.31","","","","","","NA"
"-63.63","44.71","BEDFORD BASIN","8200573","2022-11-02 08:00","2022","11","02","08:00","","13.0","","10.3","","84","","","","31","","19","","","","101.49","","","","","","NA"
"-63.63","44.71","BEDFORD BASIN","8200573","2022-11-02 09:00","2022","11","02","09:00","","13.6","","10.3","","80","","","","31","","18","","","","101.55","","","","","","NA"
"-63.63","44.71","BEDFORD BASIN","8200573","2022-11-02 10:00","2022","11","02","10:00","","14.5","","7.0","","61","","","","32","","23","","","","101.57","","","","","","NA"
"-63.63","44.71","BEDFORD BASIN","8200573","2022-11-02 11:00","2022","11","02","11:00","","14.8","","7.1","","60","","","","32","","26","","","","101.64","","","","","","NA"
"-63.63","44.71","BEDFORD BASIN","8200573","2022-11-02 12:00","2022","11","02","12:00","","14.5","","5.4","","55","","","","30","","32","","","","101.64","","","","","","NA"
"-63.63","44.71","BEDFORD BASIN","8200573","2022-11-02 13:00","2022","11","02","13:00","","15.2","","2.6","","43","","","","30","","25","","","","101.61","","","","","","NA"
"-63.63","44.71","BEDFORD BASIN","8200573","2022-11-02 14:00","2022","11","02","14:00","","16.0","","0.8","","36","","","","32","","27","","","","101.62","","","","","","NA"
"-63.63","44.71","BEDFORD BASIN","8200573","2022-11-02 15:00","2022","11","02","15:00","","15.4","","1.2","","38","","","","31","","29","","","","101.68","","","","","","NA"
"-63.63","44.71","BEDFORD BASIN","8200573","2022-11-02 16:00","2022","11","02","16:00","","15.1","","1.5","","40","","","","31","","25","","","","101.74","","","","","","NA"
"-63.63","44.71","BEDFORD BASIN","8200573","2022-11-02 17:00","2022","11","02","17:00","","13.5","","-0.5","","38","","","","32","","18","","","","101.84","","","","","","NA"
"-63.63","44.71","BEDFORD BASIN","8200573","2022-11-02 18:00","2022","11","02","18:00","","11.5","","-0.5","","43","","","","32","","8","","","","101.94","","","","","","NA"
"-63.63","44.71","BEDFORD BASIN","8200573","2022-11-02 19:00","2022","11","02","19:00","","10.8","","0.2","","48","","","","32","","13","","","","102.03","","","","","","NA"
"-63.63","44.71","BEDFORD BASIN","8200573","2022-11-02 20:00","2022","11","02","20:00","","9.8","","-0.2","","50","","","","32","","10","","","","102.09","","","","","","NA"
"-63.63","44.71","BEDFORD BASIN","8200573","2022-11-02 21:00","2022","11","02","21:00","","8.9","","-1.2","","49","","","","33","","9","","","","102.21","","","","","","NA"
"-63.63","44.71","BEDFORD BASIN","8200573","2022-11-02 22:00","2022","11","02","22:00","","8.6","","-2.6","","45","","","","32","","13","","","","102.30","","","","","","NA"
"-63.63","44.71","BEDFORD BASIN","8200573","2022-11-02 23:00","2022","11","02","23:00","","7.8","","-4.3","","42","","","","32","","21","","","","102.36","","","","","","NA"
"-63.63","44.71","BEDFORD BASIN","8200573","2022-11-03 00:00","2022","11","03","00:00","","7.0","","-3.9","","46","","","","33","","12","","","","102.39","","","","","","NA"
"-63.63","44.71","BEDFORD BASIN","8200573","2022-11-03 01:00","2022","11","03","01:00","","6.4","","-3.3","","50","","","","32","","14","","","","102.44","","","","","","NA"
"-63.63","44.71","BEDFORD BASIN","8200573","2022-11-03 02:00","2022","11","03","02:00","","6.0","","-1.4","","59","","","","31","","11","","","","102.48","","","","","","NA"
"-63.63","44.71","BEDFORD BASIN","8200573","2022-11-03 03:00","2022","11","03","03:00","","5.4","","-1.6","","61","","","","32","","14","","","","102.53","","","","","","NA"
"-63.63","44.71","BEDFORD BASIN","8200573","2022-11-03 04:00","2022","11","03","04:00","","4.9","","-1.8","","62","","","","32","","13","","","","102.56","","","","","","NA"
"-63.63","44.71","BEDFORD BASIN","8200573","2022-11-03 05:00","2022","11","03","05:00","","4.8","","-2.0","","61","","","","32","","13","","","","102.62","","","","","","NA"
"-63.63","44.71","BEDFORD BASIN","8200573","2022-11-03 06:00","2022","11","03","06:00","","4.2","","-1.6","","66","","","","32","","8","","","","102.67","","","","","","NA"
"-63.63","44.71","BEDFORD BASIN","8200573","2022-11-03 07:00","2022","11","03","07:00","","3.7","","-2.5","","64","","","","31","","7","","","","102.71","","","","","","NA"
"-63.63","44.71","BEDFORD BASIN","8200573","2022-11-03 08:00","2022","11","03","08:00","","7.1","","-1.8","","53","","","","33","","7","","","","102.75","","","","","","NA"
"-63.63","44.71","BEDFORD BASIN","8200573","2022-11-03 09:00","2022","11","03","09:00","","6.8","","-1.4","","56","","","","30","","14","","","","102.77","","","","","","NA"
"-63.63","44.71","BEDFORD BASIN","8200573","2022-11-03 10:00","2022","11","03","10:00","","8.5","","-2.1","","47","","","","30","","15","","","","102.75","","","","","","NA"
"-63.63","44.71","BEDFORD BASIN","8200573","2022-11-03 11:00","2022","11","03","11:00","","9.6","","-3.2","","41","","","","28","","21","","","","102.75","","","","","","NA"
"-63.63","44.71","BEDFORD BASIN","8200573","2022-11-03 12:00","2022","11","03","12:00","","11.0","","-2.3","","39","","","","28","","20","","","","102.66","","","","","","NA"
"-63.63","44.71","BEDFORD BASIN","8200573","2022-11-03 13:00","2022","11","03","13:00","","12.2","","-3.0","","34","","","","28","","14","","","","102.57","","","","","","NA"
"-63.63","44.71","BEDFORD BASIN","8200573","2022-11-03 14:00","2022","11","03","14:00","","13.7","","-2.3","","33","","","","28","","16","","","","102.51","","","","","","NA"
"-63.63","44.71","BEDFORD BASIN","8200573","2022-11-03 15:00","2022","11","03","15:00","","13.9","","-2.3","","33","","","","25","","15","","","","102.46","","","","","","NA"
"-63.63","44.71","BEDFORD BASIN","8200573","2022-11-03 16:00","2022","11","03","16:00","","13.1","","1.9","","47","","","","21","","17","","","","102.50","","","","","","NA"
"-63.63","44.71","BEDFORD BASIN","8200573","2022-11-03 17:00","2022","11","03","17:00","","12.1","","4.4","","59","","","","21","","14","","","","102.46","","","","","","NA"
"-63.63","44.71","BEDFORD BASIN","8200573","2022-11-03 18:00","2022","11","03","18:00","","11.4","","3.2","","57","","","","23","","12","","","","102.46","","","","","","NA"
"-63.63","44.71","BEDFORD BASIN","8200573","2022-11-03 19:00","2022","11","03","19:00","","10.8","","0.8","","50","","","","25","","7","","","","102.45","","","","","","NA"
"-63.63","44.71","BEDFORD BASIN","8200573","2022-11-03 20:00","2022","11","03","20:00","","9.7","","1.7","","58","","","","","","0","","","","102.45","","","","","","NA"
"-63.63","44.71","BEDFORD BASIN","8200573","2022-11-03 21:00","2022","11","03","21:00","","9.9","","-0.6","","48","","","","29","","6","","","","102.47","","","","","","NA"
"-63.63","44.71","BEDFORD BASIN","8200573","2022-11-03 22:00","2022","11","03","22:00","","9.6","","1.6","","58","","","","27","","12","","","","102.51","","","","","","NA"
"-63.63","44.71","BEDFORD BASIN","8200573","2022-11-03 23:00","2022","11","03","23:00","","9.3","","3.1","","66","","","","24","","8","","","","102.51","","","","","","NA"
"-63.63","44.71","BEDFORD BASIN","8200573","2022-11-04 00:00","2022","11","04","00:00","","8.7","","4.4","","74","","","","21","","7","","","","102.51","","","","","","NA"
"-63.63","44.71","BEDFORD BASIN","8200573","2022-11-04 01:00","2022","11","04","01:00","","8.0","","4.9","","81","","","","21","","9","","","","102.51","","","","","","NA"
"-63.63","44.71","BEDFORD BASIN","8200573","2022-11-04 02:00","2022","11","04","02:00","","8.6","","5.8","","83","","","","24","","9","","","","102.47","","","","","","NA"
"-63.63","44.71","BEDFORD BASIN","8200573","2022-11-04 03:00","2022","11","04","03:00","","8.7","","6.2","","85","","","","25","","12","","","","102.45","","","","","","NA"
"-63.63","44.71","BEDFORD BASIN","8200573","2022-11-04 04:00","2022","11","04","04:00","","9.1","","7.1","","88","","","","25","","17","","","","102.43","","","","","","NA"
"-63.63","44.71","BEDFORD BASIN","8200573","2022-11-04 05:00","2022","11","04","05:00","","9.4","","7.6","","89","","","","26","","12","","","","102.42","","","","","","NA"
"-63.63","44.71","BEDFORD BASIN","8200573","2022-11-04 06:00","2022","11","04","06:00","","10.1","","8.2","","88","","","","27","","11","","","","102.41","","","","","","NA"
"-63.63","44.71","BEDFORD BASIN","8200573","2022-11-04 07:00","2022","11","04","07:00","","9.5","","8.2","","92","","","","27","","13","","","","102.41","","","","","","NA"
"-63.63","44.71","BEDFORD BASIN","8200573","2022-11-04 08:00","2022","11","04","08:00","","10.8","","8.5","","86","","","","28","","15","","","","102.44","","","","","","NA"
"-63.63","44.71","BEDFORD BASIN","8200573","2022-11-04 09:00","2022","11","04","09:00","","12.2","","8.7","","79","","","","27","","13","","","","102.46","","","","","","NA"
"-63.63","44.71","BEDFORD BASIN","8200573","2022-11-04 10:00","2022","11","04","10:00","","13.7","","8.7","","72","","","","27","","12","","","","102.46","","","","","","NA"
"-63.63","44.71","BEDFORD BASIN","8200573","2022-11-04 11:00","2022","11","04","11:00","","14.9","","9.2","","69","","","","26","","12","","","","102.45","","","","","","NA"
"-63.63","44.71","BEDFORD BASIN","8200573","2022-11-04 12:00","2022","11","04","12:00","","16.0","","9.5","","65","","","","24","","12","","","","102.40","","","","","","NA"
"-63.63","44.71","BEDFORD BASIN","8200573","2022-11-04 13:00","2022","11","04","13:00","","16.9","","9.8","","63","","","","23","","15","","","","102.35","","","","","","NA"
"-63.63","44.71","BEDFORD BASIN","8200573","2022-11-04 14:00","2022","11","04","14:00","","17.4","","10.1","","62","","","","23","","15","","","","102.29","","","","","","NA"
"-63.63","44.71","BEDFORD BASIN","8200573","2022-11-04 15:00","2022","11","04","15:00","","17.9","","10.0","","60","","","","23","","13","","","","102.30","","","","","","NA"
"-63.63","44.71","BEDFORD BASIN","8200573","2022-11-04 16:00","2022","11","04","16:00","","16.6","","11.2","","70","","","","19","","12","","","","102.31","","","","","","NA"
"-63.63","44.71","BEDFORD BASIN","8200573","2022-11-04 17:00","2022","11","04","17:00","","15.7","","11.4","","76","","","","17","","11","","","","102.33","","","","","","NA"
"-63.63","44.71","BEDFORD BASIN","8200573","2022-11-04 18:00","2022","11","04","18:00","","14.9","","10.9","","77","","","","23","","11","","","","102.34","","","","","","NA"
"-63.63","44.71","BEDFORD BASIN","8200573","2022-11-04 19:00","2022","11","04","19:00","","14.6","","10.0","","74","","","","25","","12","","","","102.36","","","","","","NA"
"-63.63","44.71","BEDFORD BASIN","8200573","2022-11-04 20:00","2022","11","04","20:00","","14.0","","9.9","","76","","","","25","","8","","","","102.39","","","","","","NA"
"-63.63","44.71","BEDFORD BASIN","8200573","2022-11-04 21:00","2022","11","04","21:00","","13.4","","10.0","","80","","","","25","","9","","","","102.36","","","","","","NA"
"-63.63","44.71","BEDFORD BASIN","8200573","2022-11-04 22:00","2022","11","04","22:00","","13.0","","10.4","","84","","","","25","","12","","","","102.41","","","","","","NA"
"-63.63","44.71","BEDFORD BASIN","8200573","2022-11-04 23:00","2022","11","04","23:00","","13.6","","11.3","","86","","","","26","","13","","","","102.38","","","","","","NA"
"-63.63","44.71","BEDFORD BASIN","8200573","2022-11-05 00:00","2022","11","05","00:00","","13.7","","12.1","","90","","","","25","","10","","","","102.39","","","","","","NA"
"-63.63","44.71","BEDFORD BASIN","8200573","2022-11-05 01:00","2022","11","05","01:00","","13.1","","12.1","","94","","","","23","","14","","","","102.36","","","","","","NA"
"-63.63","44.71","BEDFORD BASIN","8200573","2022-11-05 02:00","2022","11","05","02:00","","13.4","","12.3","","93","","","","22","","13","","","","102.34","","","","","","NA"
"-63.63","44.71","BEDFORD BASIN","8200573","2022-11-05 03:00","2022","11","05","03:00","","13.6","","12.4","","92","","","","24","","10","","","","102.34","","","","","","NA"
"-63.63","44.71","BEDFORD BASIN","8200573","2022-11-05 04:00","2022","11","05","04:00","","13.5","","12.5","","94","","","","24","","12","","","","102.31","","","","","","NA"
"-63.63","44.71","BEDFORD BASIN","8200573","2022-11-05 05:00","2022","11","05","05:00","","13.7","","12.7","","94","","","","25","","16","","","","102.33","","","","","","NA"
"-63.63","44.71","BEDFORD BASIN","8200573","2022-11-05 06:00","2022","11","05","06:00","","14.0","","12.9","","93","","","","24","","15","","","","102.30","","","","","","NA"
"-63.63","44.71","BEDFORD BASIN","8200573","2022-11-05 07:00","2022","11","05","07:00","","13.5","","13.0","","97","","","","23","","14","","","","102.31","","","","","","NA"
"-63.63","44.71","BEDFORD BASIN","8200573","2022-11-05 08:00","2022","11","05","08:00","","13.8","","12.8","","93","","","","24","","13","","","","102.33","","","","","","NA"
"-63.63","44.71","BEDFORD BASIN","8200573","2022-11-05 09:00","2022","11","05","09:00","","15.3","","13.1","","87","","","","24","","23","","","","102.35","","","","","","NA"
"-63.63","44.71","BEDFORD BASIN","8200573","2022-11-05 10:00","2022","11","05","10:00","","16.1","","13.7","","86","","","","25","","25","","","","102.34","","","","","","NA"
"-63.63","44.71","BEDFORD BASIN","8200573","2022-11-05 11:00","2022","11","05","11:00","","17.5","","14.0","","80","","","","24","","20","","","","102.31","","","","","","NA"
"-63.63","44.71","BEDFORD BASIN","8200573","2022-11-05 12:00","2022","11","05","12:00","","17.3","","14.3","","83","","","","19","","19","","","","102.25","","","","","","NA"
"-63.63","44.71","BEDFORD BASIN","8200573","2022-11-05 13:00","2022","11","05","13:00","","16.8","","14.4","","85","","","","18","","20","","","","102.22","","","","","","NA"
"-63.63","44.71","BEDFORD BASIN","8200573","2022-11-05 14:00","2022","11","05","14:00","","18.5","","14.5","","78","","","","20","","16","","","","102.17","","","","","","NA"
"-63.63","44.71","BEDFORD BASIN","8200573","2022-11-05 15:00","2022","11","05","15:00","","19.5","","14.5","","73","","","","20","","11","","","","102.17","","","","","","NA"
"-63.63","44.71","BEDFORD BASIN","8200573","2022-11-05 16:00","2022","11","05","16:00","","17.7","","14.2","","80","","","","18","","17","","","","102.21","","","","","","NA"
"-63.63","44.71","BEDFORD BASIN","8200573","2022-11-05 17:00","2022","11","05","17:00","","17.2","","14.3","","83","","","","19","","10","","","","102.22","","","","","","NA"
"-63.63","44.71","BEDFORD BASIN","8200573","2022-11-05 18:00","2022","11","05","18:00","","17.0","","14.4","","85","","","","19","","6","","","","102.28","","","","","","NA"
"-63.63","44.71","BEDFORD BASIN","8200573","2022-11-05 19:00","2022","11","05","19:00","","17.1","","14.6","","85","","","","23","","14","","","","102.33","","","","","","NA"
"-63.63","44.71","BEDFORD BASIN","8200573","2022-11-05 20:00","2022","11","05","20:00","","17.1","","14.6","","85","","","","22","","13","","","","102.36","","","","","","NA"
"-63.63","44.71","BEDFORD BASIN","8200573","2022-11-05 21:00","2022","11","05","21:00","","17.5","","14.7","","84","","","","23","","20","","","","102.40","","","","","","NA"
"-63.63","44.71","BEDFORD BASIN","8200573","2022-11-05 22:00","2022","11","05","22:00","","17.2","","14.4","","84","","","","25","","16","","","","102.46","","","","","","NA"
"-63.63","44.71","BEDFORD BASIN","8200573","2022-11-05 23:00","2022","11","05","23:00","","15.6","","14.2","","91","","","","23","","14","","","","102.48","","","","","","NA"
"-63.63","44.71","BEDFORD BASIN","8200573","2022-11-06 00:00","2022","11","06","00:00","","15.1","","14.1","","94","","","","24","","11","","","","102.51","","","","","","NA"
"-63.63","44.71","BEDFORD BASIN","8200573","2022-11-06 01:00","2022","11","06","01:00","","14.5","","14.3","","99","","","","22","","13","","","","102.51","","","","","","NA"
"-63.63","44.71","BEDFORD BASIN","8200573","2022-11-06 02:00","2022","11","06","02:00","","14.8","","14.7","","100","","","","22","","18","","","","102.53","","","","","","NA"
"-63.63","44.71","BEDFORD BASIN","8200573","2022-11-06 03:00","2022","11","06","03:00","","14.9","","14.6","","98","","","","24","","10","","","","102.51","","","","","","NA"
"-63.63","44.71","BEDFORD BASIN","8200573","2022-11-06 04:00","2022","11","06","04:00","","14.4","","14.3","","99","","","","25","","10","","","","102.49","","","","","","NA"
"-63.63","44.71","BEDFORD BASIN","8200573","2022-11-06 05:00","2022","11","06","05:00","","14.4","","14.3","","100","","","","24","","13","","","","102.51","","","","","","NA"
"-63.63","44.71","BEDFORD BASIN","8200573","2022-11-06 06:00","2022","11","06","06:00","","14.4","","14.3","","100","","","","22","","9","","","","102.51","","","","","","NA"
"-63.63","44.71","BEDFORD BASIN","8200573","2022-11-06 07:00","2022","11","06","07:00","","14.5","","14.4","","100","","","","23","","11","","","","102.53","","","","","","NA"
"-63.63","44.71","BEDFORD BASIN","8200573","2022-11-06 08:00","2022","11","06","08:00","","14.8","","13.9","","94","","","","20","","5","","","","102.55","","","","","","NA"
"-63.63","44.71","BEDFORD BASIN","8200573","2022-11-06 09:00","2022","11","06","09:00","","16.1","","14.0","","88","","","","21","","6","","","","102.58","","","","","","NA"
"-63.63","44.71","BEDFORD BASIN","8200573","2022-11-06 10:00","2022","11","06","10:00","","17.2","","13.9","","81","","","","22","","15","","","","102.58","","","","","","NA"
"-63.63","44.71","BEDFORD BASIN","8200573","2022-11-06 11:00","2022","11","06","11:00","","17.8","","13.9","","78","","","","22","","15","","","","102.54","","","","","","NA"
"-63.63","44.71","BEDFORD BASIN","8200573","2022-11-06 12:00","2022","11","06","12:00","","18.9","","14.4","","75","","","","21","","22","","","","102.48","","","","","","NA"
"-63.63","44.71","BEDFORD BASIN","8200573","2022-11-06 13:00","2022","11","06","13:00","","18.5","","14.6","","78","","","","19","","19","","","","102.39","","","","","","NA"
"-63.63","44.71","BEDFORD BASIN","8200573","2022-11-06 14:00","2022","11","06","14:00","","19.4","","14.9","","75","","","","21","","24","","","","102.34","","","","","","NA"
"-63.63","44.71","BEDFORD BASIN","8200573","2022-11-06 15:00","2022","11","06","15:00","","18.3","","14.6","","79","","","","19","","21","","","","102.31","","","","","","NA"
"-63.63","44.71","BEDFORD BASIN","8200573","2022-11-06 16:00","2022","11","06","16:00","","17.9","","14.7","","82","","","","21","","16","","","","102.31","","","","","","NA"
"-63.63","44.71","BEDFORD BASIN","8200573","2022-11-06 17:00","2022","11","06","17:00","","17.0","","14.9","","88","","","","21","","21","","","","102.31","","","","","","NA"
"-63.63","44.71","BEDFORD BASIN","8200573","2022-11-06 18:00","2022","11","06","18:00","","16.7","","14.9","","89","","","","22","","20","","","","102.31","","","","","","NA"
"-63.63","44.71","BEDFORD BASIN","8200573","2022-11-06 19:00","2022","11","06","19:00","","16.2","","14.8","","91","","","","20","","15","","","","102.30","","","","","","NA"
"-63.63","44.71","BEDFORD BASIN","8200573","2022-11-06 20:00","2022","11","06","20:00","","16.0","","14.9","","94","","","","21","","17","","","","102.26","","","","","","NA"
"-63.63","44.71","BEDFORD BASIN","8200573","2022-11-06 21:00","2022","11","06","21:00","","16.1","","15.0","","93","","","","21","","19","","","","102.20","","","","","","NA"
"-63.63","44.71","BEDFORD BASIN","8200573","2022-11-06 22:00","2022","11","06","22:00","","16.0","","14.9","","94","","","","21","","19","","","","102.20","","","","","","NA"
"-63.63","44.71","BEDFORD BASIN","8200573","2022-11-06 23:00","2022","11","06","23:00","","15.8","","14.9","","94","","","","21","","16","","","","102.20","","","","","","NA"
"-63.63","44.71","BEDFORD BASIN","8200573","2022-11-07 00:00","2022","11","07","00:00","","15.9","","15.0","","94","","","","21","","18","","","","102.17","","","","","","NA"
"-63.63","44.71","BEDFORD BASIN","8200573","2022-11-07 01:00","2022","11","07","01:00","","15.9","","15.0","","94","","","","21","","17","","","","102.14","","","","","","NA"
"-63.63","44.71","BEDFORD BASIN","8200573","2022-11-07 02:00","2022","11","07","02:00","","16.0","","15.2","","95","","","","20","","11","","","","102.10","","","","","","NA"
"-63.63","44.71","BEDFORD BASIN","8200573","2022-11-07 03:00","2022","11","07","03:00","","16.2","","15.4","","95","","","","22","","17","","","","102.09","","","","","","NA"
"-63.63","44.71","BEDFORD BASIN","8200573","2022-11-07 04:00","2022","11","07","04:00","","16.2","","15.5","","96","","","","23","","14","","","","102.06","","","","","","NA"
"-63.63","44.71","BEDFORD BASIN","8200573","2022-11-07 05:00","2022","11","07","05:00","","16.1","","15.5","","97","","","","22","","16","","","","101.98","","","","","","NA"
"-63.63","44.71","BEDFORD BASIN","8200573","2022-11-07 06:00","2022","11","07","06:00","","16.0","","15.5","","97","","","","22","","20","","","","101.93","","","","","","NA"
"-63.63","44.71","BEDFORD BASIN","8200573","2022-11-07 07:00","2022","11","07","07:00","","15.7","","15.3","","97","","","","21","","21","","","","101.87","","","","","","NA"
"-63.63","44.71","BEDFORD BASIN","8200573","2022-11-07 08:00","2022","11","07","08:00","","16.1","","14.9","","93","","","","22","","22","","","","101.85","","","","","","NA"
"-63.63","44.71","BEDFORD BASIN","8200573","2022-11-07 09:00","2022","11","07","09:00","","16.9","","14.7","","87","","","","21","","23","","","","101.79","","","","","","NA"
"-63.63","44.71","BEDFORD BASIN","8200573","2022-11-07 10:00","2022","11","07","10:00","","16.6","","14.7","","89","","","","20","","23","","","","101.72","","","","","","NA"
"-63.63","44.71","BEDFORD BASIN","8200573","2022-11-07 11:00","2022","11","07","11:00","","16.2","","15.4","","95","","","","20","","27","","","","101.63","","","","","","NA"
"-63.63","44.71","BEDFORD BASIN","8200573","2022-11-07 12:00","2022","11","07","12:00","","16.4","","15.4","","94","","","","20","","22","","","","101.47","","","","","","NA"
"-63.63","44.71","BEDFORD BASIN","8200573","2022-11-07 13:00","2022","11","07","13:00","","16.4","","15.6","","95","","","","21","","27","","","","101.36","","","","","","NA"
"-63.63","44.71","BEDFORD BASIN","8200573","2022-11-07 14:00","2022","11","07","14:00","","16.5","","15.3","","93","","","","21","","23","","","","101.25","","","","","","NA"
"-63.63","44.71","BEDFORD BASIN","8200573","2022-11-07 15:00","2022","11","07","15:00","","16.5","","15.6","","94","","","","22","","25","","","","101.17","","","","","","NA"
"-63.63","44.71","BEDFORD BASIN","8200573","2022-11-07 16:00","2022","11","07","16:00","","16.3","","16.0","","98","","","","22","","24","","","","101.15","","","","","","NA"
"-63.63","44.71","BEDFORD BASIN","8200573","2022-11-07 17:00","2022","11","07","17:00","","16.4","","15.9","","97","","","","23","","18","","","","101.13","","","","","","NA"
"-63.63","44.71","BEDFORD BASIN","8200573","2022-11-07 18:00","2022","11","07","18:00","","16.0","","15.3","","96","","","","21","","18","","","","101.06","","","","","","NA"
"-63.63","44.71","BEDFORD BASIN","8200573","2022-11-07 19:00","2022","11","07","19:00","","15.9","","15.0","","94","","","","22","","23","","","","101.06","","","","","","NA"
"-63.63","44.71","BEDFORD BASIN","8200573","2022-11-07 20:00","2022","11","07","20:00","","15.6","","14.4","","92","","","","23","","11","","","","101.07","","","","","","NA"
"-63.63","44.71","BEDFORD BASIN","8200573","2022-11-07 21:00","2022","11","07","21:00","","15.4","","11.3","","76","","","","30","","22","","","","101.19","","","","","","NA"
"-63.63","44.71","BEDFORD BASIN","8200573","2022-11-07 22:00","2022","11","07","22:00","","14.4","","7.2","","62","","","","31","","19","","","","101.28","","","","","","NA"
"-63.63","44.71","BEDFORD BASIN","8200573","2022-11-07 23:00","2022","11","07","23:00","","13.6","","3.9","","52","","","","32","","22","","","","101.37","","","","","","NA"
"-63.63","44.71","BEDFORD BASIN","8200573","2022-11-08 00:00","2022","11","08","00:00","","12.6","","4.0","","56","","","","30","","21","","","","101.44","","","","","","NA"
"-63.63","44.71","BEDFORD BASIN","8200573","2022-11-08 01:00","2022","11","08","01:00","","11.7","","2.8","","54","","","","30","","23","","","","101.47","","","","","","NA"
"-63.63","44.71","BEDFORD BASIN","8200573","2022-11-08 02:00","2022","11","08","02:00","","10.7","","2.9","","58","","","","30","","20","","","","101.51","","","","","","NA"
"-63.63","44.71","BEDFORD BASIN","8200573","2022-11-08 03:00","2022","11","08","03:00","","10.2","","2.5","","59","","","","29","","17","","","","101.51","","","","","","NA"
"-63.63","44.71","BEDFORD BASIN","8200573","2022-11-08 04:00","2022","11","08","04:00","","9.7","","2.8","","62","","","","28","","19","","","","101.56","","","","","","NA"
"-63.63","44.71","BEDFORD BASIN","8200573","2022-11-08 05:00","2022","11","08","05:00","","9.3","","2.8","","64","","","","29","","28","","","","101.58","","","","","","NA"
"-63.63","44.71","BEDFORD BASIN","8200573","2022-11-08 06:00","2022","11","08","06:00","","8.8","","2.5","","65","","","","28","","25","","","","101.58","","","","","","NA"
"-63.63","44.71","BEDFORD BASIN","8200573","2022-11-08 07:00","2022","11","08","07:00","","8.4","","1.7","","63","","","","30","","26","","","","101.58","","","","","","NA"
"-63.63","44.71","BEDFORD BASIN","8200573","2022-11-08 08:00","2022","11","08","08:00","","8.4","","-0.5","","54","","","","31","","31","","","","101.66","","","","","","NA"
"-63.63","44.71","BEDFORD BASIN","8200573","2022-11-08 09:00","2022","11","08","09:00","","8.0","","-0.8","","54","","","","31","","32","","","","101.76","","","","","","NA"
"-63.63","44.71","BEDFORD BASIN","8200573","2022-11-08 10:00","2022","11","08","10:00","","7.3","","-1.9","","52","","","","31","","36","","","","101.75","","","","","","NA"
"-63.63","44.71","BEDFORD BASIN","8200573","2022-11-08 11:00","2022","11","08","11:00","","7.8","","-1.4","","52","","","","30","","51","","","","101.80","","","","","","NA"
"-63.63","44.71","BEDFORD BASIN","8200573","2022-11-08 12:00","2022","11","08","12:00","","7.4","","-1.9","","52","","","","30","","35","","","","101.79","","","","","","NA"
"-63.63","44.71","BEDFORD BASIN","8200573","2022-11-08 13:00","2022","11","08","13:00","","7.8","","-2.8","","47","","","","31","","39","","","","101.75","","","","","","NA"
"-63.63","44.71","BEDFORD BASIN","8200573","2022-11-08 14:00","2022","11","08","14:00","","8.1","","-1.8","","49","","","","30","","43","","","","101.77","","","","","","NA"
"-63.63","44.71","BEDFORD BASIN","8200573","2022-11-08 15:00","2022","11","08","15:00","","7.7","","-3.4","","45","","","","32","","42","","","","101.83","","","","","","NA"
"-63.63","44.71","BEDFORD BASIN","8200573","2022-11-08 16:00","2022","11","08","16:00","","7.4","","-1.5","","53","","","","30","","46","","","","101.90","","","","","","NA"
"-63.63","44.71","BEDFORD BASIN","8200573","2022-11-08 17:00","2022","11","08","17:00","","7.0","","-3.1","","48","","","","31","","26","","","","102.03","","","","","","NA"
"-63.63","44.71","BEDFORD BASIN","8200573","2022-11-08 18:00","2022","11","08","18:00","","7.0","","-2.1","","52","","","","31","","29","","","","102.12","","","","","","NA"
"-63.63","44.71","BEDFORD BASIN","8200573","2022-11-08 19:00","2022","11","08","19:00","","6.9","","-3.2","","49","","","","32","","34","","","","102.19","","","","","","NA"
"-63.63","44.71","BEDFORD BASIN","8200573","2022-11-08 20:00","2022","11","08","20:00","","6.7","","-3.1","","49","","","","32","","33","","","","102.29","","","","","","NA"
"-63.63","44.71","BEDFORD BASIN","8200573","2022-11-08 21:00","2022","11","08","21:00","","6.4","","-2.9","","52","","","","32","","36","","","","102.38","","","","","","NA"
"-63.63","44.71","BEDFORD BASIN","8200573","2022-11-08 22:00","2022","11","08","22:00","","5.6","","-4.2","","49","","","","33","","29","","","","102.45","","","","","","NA"
"-63.63","44.71","BEDFORD BASIN","8200573","2022-11-08 23:00","2022","11","08","23:00","","5.4","","-3.9","","51","","","","31","","36","","","","102.48","","","","","","NA"
"-63.63","44.71","BEDFORD BASIN","8200573","2022-11-09 00:00","2022","11","09","00:00","","4.9","","-4.0","","52","","","","32","","36","","","","102.52","","","","","","NA"
"-63.63","44.71","BEDFORD BASIN","8200573","2022-11-09 01:00","2022","11","09","01:00","","4.6","","-4.2","","53","","","","32","","33","","","","102.58","","","","","","NA"
"-63.63","44.71","BEDFORD BASIN","8200573","2022-11-09 02:00","2022","11","09","02:00","","4.2","","-4.7","","52","","","","31","","29","","","","102.64","","","","","","NA"
"-63.63","44.71","BEDFORD BASIN","8200573","2022-11-09 03:00","2022","11","09","03:00","","4.0","","-4.3","","54","","","","31","","26","","","","102.72","","","","","","NA"
"-63.63","44.71","BEDFORD BASIN","8200573","2022-11-09 04:00","2022","11","09","04:00","","3.9","","-4.5","","54","","","","31","","25","","","","102.78","","","","","","NA"
"-63.63","44.71","BEDFORD BASIN","8200573","2022-11-09 05:00","2022","11","09","05:00","","3.8","","-4.0","","57","","","","31","","21","","","","102.88","","","","","","NA"
"-63.63","44.71","BEDFORD BASIN","8200573","2022-11-09 06:00","2022","11","09","06:00","","3.6","","-3.7","","59","","","","31","","26","","","","102.95","","","","","","NA"
"-63.63","44.71","BEDFORD BASIN","8200573","2022-11-09 07:00","2022","11","09","07:00","","3.5","","-3.0","","62","","","","31","","23","","","","103.04","","","","","","NA"
"-63.63","44.71","BEDFORD BASIN","8200573","2022-11-09 08:00","2022","11","09","08:00","","3.8","","-3.6","","58","","","","32","","24","","","","103.15","","","","","","NA"
"-63.63","44.71","BEDFORD BASIN","8200573","2022-11-09 09:00","2022","11","09","09:00","","4.8","","-3.2","","56","","","","32","","15","","","","103.23","","","","","","NA"
"-63.63","44.71","BEDFORD BASIN","8200573","2022-11-09 10:00","2022","11","09","10:00","","5.7","","-2.1","","57","","","","31","","23","","","","103.24","","","","","","NA"
"-63.63","44.71","BEDFORD BASIN","8200573","2022-11-09 11:00","2022","11","09","11:00","","6.3","","-2.1","","55","","","","32","","21","","","","103.23","","","","","","NA"
"-63.63","44.71","BEDFORD BASIN","8200573","2022-11-09 12:00","2022","11","09","12:00","","6.7","","-1.3","","56","","","","30","","24","","","","103.16","","","","","","NA"
"-63.63","44.71","BEDFORD BASIN","8200573","2022-11-09 13:00","2022","11","09","13:00","","7.5","","-2.4","","49","","","","32","","16","","","","103.10","","","","","","NA"
"-63.63","44.71","BEDFORD BASIN","8200573","2022-11-09 14:00","2022","11","09","14:00","","7.6","","-2.5","","49","","","","30","","23","","","","103.12","","","","","","NA"
"-63.63","44.71","BEDFORD BASIN","8200573","2022-11-09 15:00","2022","11","09","15:00","","7.6","","-1.8","","52","","","","30","","22","","","","103.17","","","","","","NA"
"-63.63","44.71","BEDFORD BASIN","8200573","2022-11-09 16:00","2022","11","09","16:00","","7.1","","-2.2","","52","","","","31","","21","","","","103.18","","","","","","NA"
"-63.63","44.71","BEDFORD BASIN","8200573","2022-11-09 17:00","2022","11","09","17:00","","5.7","","-2.5","","55","","","","31","","13","","","","103.17","","","","","","NA"
"-63.63","44.71","BEDFORD BASIN","8200573","2022-11-09 18:00","2022","11","09","18:00","","4.4","","-3.0","","59","","","","34","","8","","","","103.20","","","","","","NA"
"-63.63","44.71","BEDFORD BASIN","8200573","2022-11-09 19:00","2022","11","09","19:00","","4.2","","-2.1","","63","","","","32","","7","","","","103.20","","","","","","NA"
"-63.63","44.71","BEDFORD BASIN","8200573","2022-11-09 20:00","2022","11","09","20:00","","4.7","","-0.5","","69","","","","29","","11","","","","103.12","","","","","","NA"
"-63.63","44.71","BEDFORD BASIN","8200573","2022-11-09 21:00","2022","11","09","21:00","","4.8","","-1.1","","65","","","","32","","11","","","","103.13","","","","","","NA"
"-63.63","44.71","BEDFORD BASIN","8200573","2022-11-09 22:00","2022","11","09","22:00","","4.9","","-1.2","","64","","","","32","","10","","","","103.13","","","","","","NA"
"-63.63","44.71","BEDFORD BASIN","8200573","2022-11-09 23:00","2022","11","09","23:00","","4.9","","-1.1","","65","","","","22","","12","","","","103.01","","","","","","NA"
"-63.63","44.71","BEDFORD BASIN","8200573","2022-11-10 00:00","2022","11","10","00:00","","4.9","","-1.0","","66","","","","24","","10","","","","102.98","","","","","","NA"
"-63.63","44.71","BEDFORD BASIN","8200573","2022-11-10 01:00","2022","11","10","01:00","","4.2","","-1.2","","68","","","","35","","5","","","","103.00","","","","","","NA"
"-63.63","44.71","BEDFORD BASIN","8200573","2022-11-10 02:00","2022","11","10","02:00","","4.9","","0.2","","71","","","","20","","8","","","","102.85","","","","","","NA"
"-63.63","44.71","BEDFORD BASIN","8200573","2022-11-10 03:00","2022","11","10","03:00","","5.3","","1.0","","74","","","","22","","11","","","","102.81","","","","","","NA"
"-63.63","44.71","BEDFORD BASIN","8200573","2022-11-10 04:00","2022","11","10","04:00","","5.5","","1.3","","74","","","","19","","9","","","","102.71","","","","","","NA"
"-63.63","44.71","BEDFORD BASIN","8200573","2022-11-10 05:00","2022","11","10","05:00","","5.9","","2.3","","77","","","","21","","14","","","","102.56","","","","","","NA"
"-63.63","44.71","BEDFORD BASIN","8200573","2022-11-10 06:00","2022","11","10","06:00","","6.9","","3.8","","81","","","","23","","16","","","","102.48","","","","","","NA"
"-63.63","44.71","BEDFORD BASIN","8200573","2022-11-10 07:00","2022","11","10","07:00","","8.3","","4.9","","79","","","","23","","28","","","","102.38","","","","","","NA"
"-63.63","44.71","BEDFORD BASIN","8200573","2022-11-10 08:00","2022","11","10","08:00","","9.0","","5.6","","79","","","","22","","33","","","","102.33","","","","","","NA"
"-63.63","44.71","BEDFORD BASIN","8200573","2022-11-10 09:00","2022","11","10","09:00","","9.4","","6.1","","80","","","","23","","31","","","","102.26","","","","","","NA"
"-63.63","44.71","BEDFORD BASIN","8200573","2022-11-10 10:00","2022","11","10","10:00","","9.7","","6.2","","79","","","","23","","29","","","","102.18","","","","","","NA"
"-63.63","44.71","BEDFORD BASIN","8200573","2022-11-10 11:00","2022","11","10","11:00","","10.8","","6.4","","74","","","","23","","27","","","","102.05","","","","","","NA"
"-63.63","44.71","BEDFORD BASIN","8200573","2022-11-10 12:00","2022","11","10","12:00","","12.7","","5.9","","63","","","","25","","29","","","","101.97","","","","","","NA"
"-63.63","44.71","BEDFORD BASIN","8200573","2022-11-10 13:00","2022","11","10","13:00","","13.7","","6.1","","60","","","","24","","32","","","","101.80","","","","","","NA"
"-63.63","44.71","BEDFORD BASIN","8200573","2022-11-10 14:00","2022","11","10","14:00","","14.4","","6.4","","58","","","","24","","30","","","","101.77","","","","","","NA"
"-63.63","44.71","BEDFORD BASIN","8200573","2022-11-10 15:00","2022","11","10","15:00","","15.1","","6.2","","55","","","","25","","26","","","","101.72","","","","","","NA"
"-63.63","44.71","BEDFORD BASIN","8200573","2022-11-10 16:00","2022","11","10","16:00","","15.0","","7.2","","60","","","","25","","20","","","","101.70","","","","","","NA"
"-63.63","44.71","BEDFORD BASIN","8200573","2022-11-10 17:00","2022","11","10","17:00","","13.9","","7.0","","63","","","","23","","21","","","","101.64","","","","","","NA"
"-63.63","44.71","BEDFORD BASIN","8200573","2022-11-10 18:00","2022","11","10","18:00","","13.3","","7.6","","69","","","","27","","17","","","","101.66","","","","","","NA"
"-63.63","44.71","BEDFORD BASIN","8200573","2022-11-10 19:00","2022","11","10","19:00","","12.8","","8.0","","73","","","","26","","20","","","","101.68","","","","","","NA"
"-63.63","44.71","BEDFORD BASIN","8200573","2022-11-10 20:00","2022","11","10","20:00","","12.4","","7.9","","74","","","","26","","11","","","","101.66","","","","","","NA"
"-63.63","44.71","BEDFORD BASIN","8200573","2022-11-10 21:00","2022","11","10","21:00","","12.2","","8.0","","76","","","","26","","15","","","","101.65","","","","","","NA"
"-63.63","44.71","BEDFORD BASIN","8200573","2022-11-10 22:00","2022","11","10","22:00","","11.8","","8.0","","77","","","","25","","12","","","","101.60","","","","","","NA"
"-63.63","44.71","BEDFORD BASIN","8200573","2022-11-10 23:00","2022","11","10","23:00","","11.9","","7.7","","75","","","","28","","14","","","","101.61","","","","","","NA"
"-63.63","44.71","BEDFORD BASIN","8200573","2022-11-11 00:00","2022","11","11","00:00","","12.0","","7.4","","74","","","","28","","13","","","","101.58","","","","","","NA"
"-63.63","44.71","BEDFORD BASIN","8200573","2022-11-11 01:00","2022","11","11","01:00","","11.9","","7.2","","73","","","","28","","7","","","","101.60","","","","","","NA"
"-63.63","44.71","BEDFORD BASIN","8200573","2022-11-11 02:00","2022","11","11","02:00","","11.8","","7.4","","75","","","","30","","6","","","","101.60","","","","","","NA"
"-63.63","44.71","BEDFORD BASIN","8200573","2022-11-11 03:00","2022","11","11","03:00","","11.8","","7.2","","73","","","","","","0","","","","101.64","","","","","","NA"
"-63.63","44.71","BEDFORD BASIN","8200573","2022-11-11 04:00","2022","11","11","04:00","","11.4","","7.4","","76","","","","31","","3","","","","101.67","","","","","","NA"
"-63.63","44.71","BEDFORD BASIN","8200573","2022-11-11 05:00","2022","11","11","05:00","","10.9","","7.7","","81","","","","","","0","","","","101.69","","","","","","NA"
"-63.63","44.71","BEDFORD BASIN","8200573","2022-11-11 06:00","2022","11","11","06:00","","10.1","","7.7","","85","","","","32","","5","","","","101.71","","","","","","NA"
"-63.63","44.71","BEDFORD BASIN","8200573","2022-11-11 07:00","2022","11","11","07:00","","10.1","","8.0","","87","","","","","","0","","","","101.79","","","","","","NA"
"-63.63","44.71","BEDFORD BASIN","8200573","2022-11-11 08:00","2022","11","11","08:00","","11.3","","8.5","","83","","","","","","0","","","","101.85","","","","","","NA"
"-63.63","44.71","BEDFORD BASIN","8200573","2022-11-11 09:00","2022","11","11","09:00","","10.5","","8.8","","89","","","","","","0","","","","101.87","","","","","","NA"
"-63.63","44.71","BEDFORD BASIN","8200573","2022-11-11 10:00","2022","11","11","10:00","","13.0","","9.7","","80","","","","11","","4","","","","101.87","","","","","","NA"
"-63.63","44.71","BEDFORD BASIN","8200573","2022-11-11 11:00","2022","11","11","11:00","","14.3","","9.9","","75","","","","15","","3","","","","101.86","","","","","","NA"
"-63.63","44.71","BEDFORD BASIN","8200573","2022-11-11 12:00","2022","11","11","12:00","","15.9","","9.0","","63","","","","9","","3","","","","101.80","","","","","","NA"
"-63.63","44.71","BEDFORD BASIN","8200573","2022-11-11 13:00","2022","11","11","13:00","","16.1","","7.5","","57","","","","18","","16","","","","101.73","","","","","","NA"
"-63.63","44.71","BEDFORD BASIN","8200573","2022-11-11 14:00","2022","11","11","14:00","","18.1","","6.8","","48","","","","18","","5","","","","101.71","","","","","","NA"
"-63.63","44.71","BEDFORD BASIN","8200573","2022-11-11 15:00","2022","11","11","15:00","","16.3","","8.7","","60","","","","21","","13","","","","101.69","","","","","","NA"
"-63.63","44.71","BEDFORD BASIN","8200573","2022-11-11 16:00","2022","11","11","16:00","","14.6","","9.7","","72","","","","21","","15","","","","101.75","","","","","","NA"
"-63.63","44.71","BEDFORD BASIN","8200573","2022-11-11 17:00","2022","11","11","17:00","","14.1","","9.8","","75","","","","","","0","","","","101.74","","","","","","NA"
"-63.63","44.71","BEDFORD BASIN","8200573","2022-11-11 18:00","2022","11","11","18:00","","13.4","","10.5","","83","","","","","","0","","","","101.76","","","","","","NA"
"-63.63","44.71","BEDFORD BASIN","8200573","2022-11-11 19:00","2022","11","11","19:00","","12.8","","10.6","","87","","","","","","0","","","","101.75","","","","","","NA"
"-63.63","44.71","BEDFORD BASIN","8200573","2022-11-11 20:00","2022","11","11","20:00","","12.7","","11.0","","89","","","","14","","3","","","","101.72","","","","","","NA"
"-63.63","44.71","BEDFORD BASIN","8200573","2022-11-11 21:00","2022","11","11","21:00","","12.6","","12.0","","96","","","","10","","8","","","","101.66","","","","","","NA"
"-63.63","44.71","BEDFORD BASIN","8200573","2022-11-11 22:00","2022","11","11","22:00","","13.1","","12.9","","99","","","","21","","11","","","","101.63","","","","","","NA"
"-63.63","44.71","BEDFORD BASIN","8200573","2022-11-11 23:00","2022","11","11","23:00","","13.4","","13.0","","97","","","","21","","10","","","","101.57","","","","","","NA"
"-63.63","44.71","BEDFORD BASIN","8200573","2022-11-12 00:00","2022","11","12","00:00","","13.4","","12.9","","97","","","","20","","5","","","","101.50","","","","","","NA"
"-63.63","44.71","BEDFORD BASIN","8200573","2022-11-12 01:00","2022","11","12","01:00","","13.6","","13.2","","98","","","","12","","3","","","","101.45","","","","","","NA"
"-63.63","44.71","BEDFORD BASIN","8200573","2022-11-12 02:00","2022","11","12","02:00","","14.3","","13.6","","96","","","","22","","13","","","","101.40","","","","","","NA"
"-63.63","44.71","BEDFORD BASIN","8200573","2022-11-12 03:00","2022","11","12","03:00","","15.5","","13.9","","91","","","","19","","15","","","","101.23","","","","","","NA"
"-63.63","44.71","BEDFORD BASIN","8200573","2022-11-12 04:00","2022","11","12","04:00","","15.8","","14.7","","93","","","","18","","25","","","","101.10","","","","","","NA"
"-63.63","44.71","BEDFORD BASIN","8200573","2022-11-12 05:00","2022","11","12","05:00","","15.9","","15.1","","95","","","","17","","27","","","","100.91","","","","","","NA"
"-63.63","44.71","BEDFORD BASIN","8200573","2022-11-12 06:00","2022","11","12","06:00","","16.5","","15.5","","94","","","","18","","42","","","","100.81","","","","","","NA"
"-63.63","44.71","BEDFORD BASIN","8200573","2022-11-12 07:00","2022","11","12","07:00","","16.8","","16.0","","95","","","","19","","43","","","","100.69","","","","","","NA"
"-63.63","44.71","BEDFORD BASIN","8200573","2022-11-12 08:00","2022","11","12","08:00","","16.6","","15.6","","94","","","","19","","45","","","","100.58","","","","","","NA"
"-63.63","44.71","BEDFORD BASIN","8200573","2022-11-12 09:00","2022","11","12","09:00","","16.3","","15.7","","96","","","","19","","41","","","","100.46","","","","","","NA"
"-63.63","44.71","BEDFORD BASIN","8200573","2022-11-12 10:00","2022","11","12","10:00","","16.6","","16.1","","97","","","","20","","49","","","","100.32","","","","","","NA"
"-63.63","44.71","BEDFORD BASIN","8200573","2022-11-12 11:00","2022","11","12","11:00","","16.8","","16.4","","98","","","","20","","41","","","","100.23","","","","","","NA"
"-63.63","44.71","BEDFORD BASIN","8200573","2022-11-12 12:00","2022","11","12","12:00","","16.8","","16.5","","98","","","","21","","40","","","","100.12","","","","","","NA"
"-63.63","44.71","BEDFORD BASIN","8200573","2022-11-12 13:00","2022","11","12","13:00","","16.2","","15.7","","97","","","","21","","34","","","","99.97","","","","","","NA"
"-63.63","44.71","BEDFORD BASIN","8200573","2022-11-12 14:00","2022","11","12","14:00","","16.4","","16.3","","100","","","","20","","31","","","","99.82","","","","","","NA"
"-63.63","44.71","BEDFORD BASIN","8200573","2022-11-12 15:00","2022","11","12","15:00","","16.8","","16.8","","100","","","","20","","40","","","","99.68","","","","","","NA"
"-63.63","44.71","BEDFORD BASIN","8200573","2022-11-12 16:00","2022","11","12","16:00","","17.8","","17.5","","98","","","","19","","39","","","","99.50","","","","","","NA"
"-63.63","44.71","BEDFORD BASIN","8200573","2022-11-12 17:00","2022","11","12","17:00","","16.5","","16.2","","98","","","","22","","27","","","","99.39","","","","","","NA"
"-63.63","44.71","BEDFORD BASIN","8200573","2022-11-12 18:00","2022","11","12","18:00","","16.3","","16.3","","100","","","","21","","37","","","","99.33","","","","","","NA"
"-63.63","44.71","BEDFORD BASIN","8200573","2022-11-12 19:00","2022","11","12","19:00","","15.6","","15.4","","99","","","","22","","33","","","","99.33","","","","","","NA"
"-63.63","44.71","BEDFORD BASIN","8200573","2022-11-12 20:00","2022","11","12","20:00","","16.2","","15.5","","96","","","","24","","20","","","","99.42","","","","","","NA"
"-63.63","44.71","BEDFORD BASIN","8200573","2022-11-12 21:00","2022","11","12","21:00","","16.5","","15.7","","95","","","","28","","24","","","","99.66","","","","","","NA"
"-63.63","44.71","BEDFORD BASIN","8200573","2022-11-12 22:00","2022","11","12","22:00","","11.4","","9.7","","89","","","","30","","38","","","","100.04","","","","","","NA"
"-63.63","44.71","BEDFORD BASIN","8200573","2022-11-12 23:00","2022","11","12","23:00","","9.0","","7.2","","88","","","","32","","31","","","","100.34","","","","","","NA"
"-63.63","44.71","BEDFORD BASIN","8200573","2022-11-13 00:00","2022","11","13","00:00","","8.0","","6.5","","91","","","","32","","18","","","","100.49","","","","","","NA"
"-63.63","44.71","BEDFORD BASIN","8200573","2022-11-13 01:00","2022","11","13","01:00","","7.4","","5.3","","86","","","","32","","22","","","","100.64","","","","","","NA"
"-63.63","44.71","BEDFORD BASIN","8200573","2022-11-13 02:00","2022","11","13","02:00","","7.1","","5.6","","90","","","","31","","14","","","","100.79","","","","","","NA"
"-63.63","44.71","BEDFORD BASIN","8200573","2022-11-13 03:00","2022","11","13","03:00","","6.6","","4.7","","88","","","","32","","11","","","","100.90","","","","","","NA"
"-63.63","44.71","BEDFORD BASIN","8200573","2022-11-13 04:00","2022","11","13","04:00","","6.3","","4.2","","86","","","","33","","15","","","","100.96","","","","","","NA"
"-63.63","44.71","BEDFORD BASIN","8200573","2022-11-13 05:00","2022","11","13","05:00","","6.0","","4.3","","89","","","","33","","9","","","","100.98","","","","","","NA"
"-63.63","44.71","BEDFORD BASIN","8200573","2022-11-13 06:00","2022","11","13","06:00","","5.9","","4.3","","89","","","","33","","7","","","","101.03","","","","","","NA"
"-63.63","44.71","BEDFORD BASIN","8200573","2022-11-13 07:00","2022","11","13","07:00","","5.9","","4.2","","89","","","","32","","7","","","","101.16","","","","","","NA"
"-63.63","44.71","BEDFORD BASIN","8200573","2022-11-13 08:00","2022","11","13","08:00","","6.0","","4.8","","92","","","","32","","9","","","","101.30","","","","","","NA"
"-63.63","44.71","BEDFORD BASIN","8200573","2022-11-13 09:00","2022","11","13","09:00","","6.0","","4.1","","87","","","","1","","4","","","","101.23","","","","","","NA"
"-63.63","44.71","BEDFORD BASIN","8200573","2022-11-13 10:00","2022","11","13","10:00","","7.5","","4.3","","81","","","","3","","7","","","","101.18","","","","","","NA"
"-63.63","44.71","BEDFORD BASIN","8200573","2022-11-13 11:00","2022","11","13","11:00","","8.4","","4.9","","78","","","","35","","9","","","","101.23","","","","","","NA"
"-63.63","44.71","BEDFORD BASIN","8200573","2022-11-13 12:00","2022","11","13","12:00","","9.0","","5.4","","78","","","","33","","6","","","","101.15","","","","","","NA"
"-63.63","44.71","BEDFORD BASIN","8200573","2022-11-13 13:00","2022","11","13","13:00","","8.5","","5.2","","80","","","","8","","6","","","","101.15","","","","","","NA"
"-63.63","44.71","BEDFORD BASIN","8200573","2022-11-13 14:00","2022","11","13","14:00","","9.2","","5.7","","79","","","","7","","7","","","","101.10","","","","","","NA"
"-63.63","44.71","BEDFORD BASIN","8200573","2022-11-13 15:00","2022","11","13","15:00","","8.9","","6.2","","83","","","","6","","7","","","","101.03","","","","","","NA"
"-63.63","44.71","BEDFORD BASIN","8200573","2022-11-13 16:00","2022","11","13","16:00","","9.1","","6.3","","83","","","","8","","7","","","","100.93","","","","","","NA"
"-63.63","44.71","BEDFORD BASIN","8200573","2022-11-13 17:00","2022","11","13","17:00","","8.9","","6.5","","85","","","","9","","12","","","","100.84","","","","","","NA"
"-63.63","44.71","BEDFORD BASIN","8200573","2022-11-13 18:00","2022","11","13","18:00","","8.7","","6.8","","88","","","","9","","22","","","","100.78","","","","","","NA"
"-63.63","44.71","BEDFORD BASIN","8200573","2022-11-13 19:00","2022","11","13","19:00","","9.1","","8.0","","93","","","","10","","23","","","","100.73","","","","","","NA"
"-63.63","44.71","BEDFORD BASIN","8200573","2022-11-13 20:00","2022","11","13","20:00","","8.9","","8.1","","95","","","","9","","20","","","","100.55","","","","","","NA"
"-63.63","44.71","BEDFORD BASIN","8200573","2022-11-13 21:00","2022","11","13","21:00","","8.9","","8.4","","96","","","","9","","17","","","","100.49","","","","","","NA"
"-63.63","44.71","BEDFORD BASIN","8200573","2022-11-13 22:00","2022","11","13","22:00","","9.3","","9.0","","98","","","","8","","13","","","","100.36","","","","","","NA"
"-63.63","44.71","BEDFORD BASIN","8200573","2022-11-13 23:00","2022","11","13","23:00","","9.7","","9.3","","98","","","","9","","12","","","","100.24","","","","","","NA"
"-63.63","44.71","BEDFORD BASIN","8200573","2022-11-14 00:00","2022","11","14","00:00","","10.1","","9.9","","99","","","","9","","14","","","","100.12","","","","","","NA"
"-63.63","44.71","BEDFORD BASIN","8200573","2022-11-14 01:00","2022","11","14","01:00","","10.9","","10.7","","99","","","","12","","15","","","","100.00","","","","","","NA"
"-63.63","44.71","BEDFORD BASIN","8200573","2022-11-14 02:00","2022","11","14","02:00","","11.7","","11.7","","100","","","","14","","16","","","","99.90","","","","","","NA"
"-63.63","44.71","BEDFORD BASIN","8200573","2022-11-14 03:00","2022","11","14","03:00","","13.2","","13.2","","100","","","","20","","23","","","","99.88","","","","","","NA"
"-63.63","44.71","BEDFORD BASIN","8200573","2022-11-14 04:00","2022","11","14","04:00","","12.5","","10.7","","89","","","","22","","33","","","","99.92","","","","","","NA"
"-63.63","44.71","BEDFORD BASIN","8200573","2022-11-14 05:00","2022","11","14","05:00","","11.6","","8.7","","83","","","","23","","35","","","","99.98","","","","","","NA"
"-63.63","44.71","BEDFORD BASIN","8200573","2022-11-14 06:00","2022","11","14","06:00","","8.9","","5.0","","77","","","","25","","45","","","","100.17","","","","","","NA"
"-63.63","44.71","BEDFORD BASIN","8200573","2022-11-14 07:00","2022","11","14","07:00","","7.3","","3.9","","79","","","","26","","43","","","","100.33","","","","","","NA"
"-63.63","44.71","BEDFORD BASIN","8200573","2022-11-14 08:00","2022","11","14","08:00","","6.8","","3.8","","81","","","","26","","38","","","","100.52","","","","","","NA"
"-63.63","44.71","BEDFORD BASIN","8200573","2022-11-14 09:00","2022","11","14","09:00","","6.6","","3.4","","80","","","","26","","39","","","","100.65","","","","","","NA"
"-63.63","44.71","BEDFORD BASIN","8200573","2022-11-14 10:00","2022","11","14","10:00","","6.5","","1.9","","73","","","","27","","42","","","","100.71","","","","","","NA"
"-63.63","44.71","BEDFORD BASIN","8200573","2022-11-14 11:00","2022","11","14","11:00","","6.9","","2.3","","72","","","","28","","43","","","","100.87","","","","","","NA"
"-63.63","44.71","BEDFORD BASIN","8200573","2022-11-14 12:00","2022","11","14","12:00","","6.8","","2.0","","71","","","","28","","41","","","","100.96","","","","","","NA"
"-63.63","44.71","BEDFORD BASIN","8200573","2022-11-14 13:00","2022","11","14","13:00","","6.4","","2.6","","77","","","","28","","42","","","","101.01","","","","","","NA"
"-63.63","44.71","BEDFORD BASIN","8200573","2022-11-14 14:00","2022","11","14","14:00","","6.3","","2.6","","77","","","","29","","39","","","","101.10","","","","","","NA"
"-63.63","44.71","BEDFORD BASIN","8200573","2022-11-14 15:00","2022","11","14","15:00","","6.1","","1.9","","75","","","","28","","40","","","","101.21","","","","","","NA"
"-63.63","44.71","BEDFORD BASIN","8200573","2022-11-14 16:00","2022","11","14","16:00","","5.5","","1.4","","75","","","","28","","38","","","","101.34","","","","","","NA"
"-63.63","44.71","BEDFORD BASIN","8200573","2022-11-14 17:00","2022","11","14","17:00","","4.7","","1.3","","79","","","","27","","30","","","","101.54","","","","","","NA"
"-63.63","44.71","BEDFORD BASIN","8200573","2022-11-14 18:00","2022","11","14","18:00","","4.5","","0.8","","77","","","","28","","33","","","","101.65","","","","","","NA"
"-63.63","44.71","BEDFORD BASIN","8200573","2022-11-14 19:00","2022","11","14","19:00","","4.5","","1.0","","78","","","","28","","23","","","","101.78","","","","","","NA"
"-63.63","44.71","BEDFORD BASIN","8200573","2022-11-14 20:00","2022","11","14","20:00","","4.2","","0.9","","79","","","","29","","30","","","","101.88","","","","","","NA"
"-63.63","44.71","BEDFORD BASIN","8200573","2022-11-14 21:00","2022","11","14","21:00","","3.8","","0.5","","79","","","","29","","26","","","","101.98","","","","","","NA"
"-63.63","44.71","BEDFORD BASIN","8200573","2022-11-14 22:00","2022","11","14","22:00","","3.9","","1.1","","82","","","","30","","27","","","","102.09","","","","","","NA"
"-63.63","44.71","BEDFORD BASIN","8200573","2022-11-14 23:00","2022","11","14","23:00","","3.8","","-0.6","","73","","","","29","","31","","","","102.13","","","","","","NA"
"-63.63","44.71","BEDFORD BASIN","8200573","2022-11-15 00:00","2022","11","15","00:00","","3.8","","-0.8","","72","","","","29","","27","","","","102.20","","","","","","NA"
"-63.63","44.71","BEDFORD BASIN","8200573","2022-11-15 01:00","2022","11","15","01:00","","3.6","","-1.1","","71","","","","29","","27","","","","102.23","","","","","","NA"
"-63.63","44.71","BEDFORD BASIN","8200573","2022-11-15 02:00","2022","11","15","02:00","","3.6","","-0.7","","74","","","","29","","23","","","","102.32","","","","","","NA"
"-63.63","44.71","BEDFORD BASIN","8200573","2022-11-15 03:00","2022","11","15","03:00","","3.5","","-0.9","","73","","","","30","","18","","","","102.38","","","","","","NA"
"-63.63","44.71","BEDFORD BASIN","8200573","2022-11-15 04:00","2022","11","15","04:00","","3.3","","-1.6","","71","","","","29","","18","","","","102.41","","","","","","NA"
"-63.63","44.71","BEDFORD BASIN","8200573","2022-11-15 05:00","2022","11","15","05:00","","3.1","","-1.7","","71","","","","29","","25","","","","102.49","","","","","","NA"
"-63.63","44.71","BEDFORD BASIN","8200573","2022-11-15 06:00","2022","11","15","06:00","","3.1","","-1.3","","73","","","","30","","22","","","","102.56","","","","","","NA"
"-63.63","44.71","BEDFORD BASIN","8200573","2022-11-15 07:00","2022","11","15","07:00","","3.0","","-1.3","","73","","","","29","","22","","","","102.64","","","","","","NA"
"-63.63","44.71","BEDFORD BASIN","8200573","2022-11-15 08:00","2022","11","15","08:00","","3.0","","-1.7","","71","","","","30","","22","","","","102.73","","","","","","NA"
"-63.63","44.71","BEDFORD BASIN","8200573","2022-11-15 09:00","2022","11","15","09:00","","2.9","","-1.7","","72","","","","31","","25","","","","102.79","","","","","","NA"
"-63.63","44.71","BEDFORD BASIN","8200573","2022-11-15 10:00","2022","11","15","10:00","","3.4","","-1.6","","69","","","","30","","27","","","","102.84","","","","","","NA"
"-63.63","44.71","BEDFORD BASIN","8200573","2022-11-15 11:00","2022","11","15","11:00","","4.0","","-1.7","","66","","","","30","","26","","","","102.88","","","","","","NA"
"-63.63","44.71","BEDFORD BASIN","8200573","2022-11-15 12:00","2022","11","15","12:00","","4.2","","-2.0","","64","","","","29","","23","","","","102.83","","","","","","NA"
"-63.63","44.71","BEDFORD BASIN","8200573","2022-11-15 13:00","2022","11","15","13:00","","4.8","","-1.7","","63","","","","29","","21","","","","102.80","","","","","","NA"
"-63.63","44.71","BEDFORD BASIN","8200573","2022-11-15 14:00","2022","11","15","14:00","","5.8","","-1.9","","58","","","","28","","16","","","","102.78","","","","","","NA"
"-63.63","44.71","BEDFORD BASIN","8200573","2022-11-15 15:00","2022","11","15","15:00","","4.9","","-2.1","","60","","","","28","","21","","","","102.78","","","","","","NA"
"-63.63","44.71","BEDFORD BASIN","8200573","2022-11-15 16:00","2022","11","15","16:00","","5.1","","-2.3","","59","","","","31","","16","","","","102.85","","","","","","NA"
"-63.63","44.71","BEDFORD BASIN","8200573","2022-11-15 17:00","2022","11","15","17:00","","3.4","","-2.9","","63","","","","32","","11","","","","102.93","","","","","","NA"
"-63.63","44.71","BEDFORD BASIN","8200573","2022-11-15 18:00","2022","11","15","18:00","","3.3","","-2.6","","65","","","","29","","16","","","","102.99","","","","","","NA"
"-63.63","44.71","BEDFORD BASIN","8200573","2022-11-15 19:00","2022","11","15","19:00","","2.3","","-3.1","","68","","","","32","","9","","","","102.99","","","","","","NA"
"-63.63","44.71","BEDFORD BASIN","8200573","2022-11-15 20:00","2022","11","15","20:00","","2.3","","-2.6","","71","","","","32","","7","","","","103.01","","","","","","NA"
"-63.63","44.71","BEDFORD BASIN","8200573","2022-11-15 21:00","2022","11","15","21:00","","2.9","","-2.1","","70","","","","29","","9","","","","103.00","","","","","","NA"
"-63.63","44.71","BEDFORD BASIN","8200573","2022-11-15 22:00","2022","11","15","22:00","","2.2","","-2.8","","69","","","","34","","6","","","","102.97","","","","","","NA"
"-63.63","44.71","BEDFORD BASIN","8200573","2022-11-15 23:00","2022","11","15","23:00","","1.8","","-2.4","","74","","","","7","","5","","","","102.91","","","","","","NA"
"-63.63","44.71","BEDFORD BASIN","8200573","2022-11-16 00:00","2022","11","16","00:00","","2.5","","-2.0","","72","","","","3","","3","","","","102.91","","","","","","NA"
"-63.63","44.71","BEDFORD BASIN","8200573","2022-11-16 01:00","2022","11","16","01:00","","2.4","","-1.6","","75","","","","33","","5","","","","102.94","","","","","","NA"
"-63.63","44.71","BEDFORD BASIN","8200573","2022-11-16 02:00","2022","11","16","02:00","","2.4","","-1.7","","75","","","","1","","5","","","","103.02","","","","","","NA"
"-63.63","44.71","BEDFORD BASIN","8200573","2022-11-16 03:00","2022","11","16","03:00","","2.2","","-1.0","","79","","","","2","","4","","","","102.99","","","","","","NA"
"-63.63","44.71","BEDFORD BASIN","8200573","2022-11-16 04:00","2022","11","16","04:00","","1.6","","-3.0","","71","","","","7","","5","","","","102.87","","","","","","NA"
"-63.63","44.71","BEDFORD BASIN","8200573","2022-11-16 05:00","2022","11","16","05:00","","2.0","","-3.1","","69","","","","8","","5","","","","102.85","","","","","","NA"
"-63.63","44.71","BEDFORD BASIN","8200573","2022-11-16 06:00","2022","11","16","06:00","","1.5","","-2.1","","77","","","","5","","6","","","","102.82","","","","","","NA"
"-63.63","44.71","BEDFORD BASIN","8200573","2022-11-16 07:00","2022","11","16","07:00","","1.5","","-2.9","","73","","","","7","","7","","","","102.72","","","","","","NA"
"-63.63","44.71","BEDFORD BASIN","8200573","2022-11-16 08:00","2022","11","16","08:00","","1.6","","-3.2","","70","","","","5","","5","","","","102.70","","","","","","NA"
"-63.63","44.71","BEDFORD BASIN","8200573","2022-11-16 09:00","2022","11","16","09:00","","2.0","","-3.6","","66","","","","8","","12","","","","102.58","","","","","","NA"
"-63.63","44.71","BEDFORD BASIN","8200573","2022-11-16 10:00","2022","11","16","10:00","","3.0","","-2.8","","65","","","","8","","10","","","","102.46","","","","","","NA"
"-63.63","44.71","BEDFORD BASIN","8200573","2022-11-16 11:00","2022","11","16","11:00","","4.3","","-0.8","","70","","","","9","","16","","","","102.31","","","","","","NA"
"-63.63","44.71","BEDFORD BASIN","8200573","2022-11-16 12:00","2022","11","16","12:00","","6.6","","2.4","","74","","","","12","","25","","","","102.11","","","","","","NA"
"-63.63","44.71","BEDFORD BASIN","8200573","2022-11-16 13:00","2022","11","16","13:00","","7.8","","2.9","","71","","","","11","","21","","","","101.86","","","","","","NA"
"-63.63","44.71","BEDFORD BASIN","8200573","2022-11-16 14:00","2022","11","16","14:00","","8.4","","3.6","","72","","","","12","","29","","","","101.72","","","","","","NA"
"-63.63","44.71","BEDFORD BASIN","8200573","2022-11-16 15:00","2022","11","16","15:00","","8.4","","4.9","","79","","","","11","","26","","","","101.59","","","","","","NA"
"-63.63","44.71","BEDFORD BASIN","8200573","2022-11-16 16:00","2022","11","16","16:00","","8.0","","6.3","","89","","","","10","","22","","","","101.37","","","","","","NA"
"-63.63","44.71","BEDFORD BASIN","8200573","2022-11-16 17:00","2022","11","16","17:00","","8.6","","8.1","","96","","","","10","","29","","","","101.18","","","","","","NA"
"-63.63","44.71","BEDFORD BASIN","8200573","2022-11-16 18:00","2022","11","16","18:00","","8.9","","8.9","","100","","","","10","","35","","","","100.88","","","","","","NA"
"-63.63","44.71","BEDFORD BASIN","8200573","2022-11-16 19:00","2022","11","16","19:00","","9.6","","9.6","","100","","","","10","","43","","","","100.52","","","","","","NA"
"-63.63","44.71","BEDFORD BASIN","8200573","2022-11-16 20:00","2022","11","16","20:00","","10.5","","10.5","","100","","","","12","","30","","","","100.29","","","","","","NA"
"-63.63","44.71","BEDFORD BASIN","8200573","2022-11-16 21:00","2022","11","16","21:00","","12.0","","11.9","","100","","","","14","","30","","","","100.08","","","","","","NA"
"-63.63","44.71","BEDFORD BASIN","8200573","2022-11-16 22:00","2022","11","16","22:00","","14.7","","14.2","","97","","","","18","","43","","","","100.02","","","","","","NA"
"-63.63","44.71","BEDFORD BASIN","8200573","2022-11-16 23:00","2022","11","16","23:00","","13.8","","12.9","","94","","","","21","","38","","","","99.86","","","","","","NA"
"-63.63","44.71","BEDFORD BASIN","8200573","2022-11-17 00:00","2022","11","17","00:00","","12.5","","11.7","","95","","","","21","","31","","","","99.71","","","","","","NA"
"-63.63","44.71","BEDFORD BASIN","8200573","2022-11-17 01:00","2022","11","17","01:00","","11.9","","11.0","","94","","","","22","","23","","","","99.62","","","","","","NA"
"-63.63","44.71","BEDFORD BASIN","8200573","2022-11-17 02:00","2022","11","17","02:00","","11.8","","10.6","","92","","","","24","","23","","","","99.61","","","","","","NA"
"-63.63","44.71","BEDFORD BASIN","8200573","2022-11-17 03:00","2022","11","17","03:00","","10.6","","8.1","","85","","","","25","","34","","","","99.65","","","","","","NA"
"-63.63","44.71","BEDFORD BASIN","8200573","2022-11-17 04:00","2022","11","17","04:00","","8.2","","6.0","","86","","","","27","","31","","","","99.81","","","","","","NA"
"-63.63","44.71","BEDFORD BASIN","8200573","2022-11-17 05:00","2022","11","17","05:00","","6.5","","3.5","","81","","","","27","","31","","","","99.99","","","","","","NA"
"-63.63","44.71","BEDFORD BASIN","8200573","2022-11-17 06:00","2022","11","17","06:00","","5.9","","2.9","","81","","","","27","","27","","","","100.02","","","","","","NA"
"-63.63","44.71","BEDFORD BASIN","8200573","2022-11-17 07:00","2022","11","17","07:00","","5.5","","2.5","","81","","","","27","","27","","","","100.13","","","","","","NA"
"-63.63","44.71","BEDFORD BASIN","8200573","2022-11-17 08:00","2022","11","17","08:00","","4.5","","1.7","","82","","","","27","","31","","","","100.23","","","","","","NA"
"-63.63","44.71","BEDFORD BASIN","8200573","2022-11-17 09:00","2022","11","17","09:00","","4.1","","2.4","","89","","","","26","","23","","","","100.31","","","","","","NA"
"-63.63","44.71","BEDFORD BASIN","8200573","2022-11-17 10:00","2022","11","17","10:00","","5.3","","1.5","","76","","","","27","","22","","","","100.26","","","","","","NA"
"-63.63","44.71","BEDFORD BASIN","8200573","2022-11-17 11:00","2022","11","17","11:00","","6.0","","0.4","","67","","","","27","","26","","","","100.20","","","","","","NA"
"-63.63","44.71","BEDFORD BASIN","8200573","2022-11-17 12:00","2022","11","17","12:00","","7.3","","1.3","","66","","","","29","","24","","","","100.13","","","","","","NA"
"-63.63","44.71","BEDFORD BASIN","8200573","2022-11-17 13:00","2022","11","17","13:00","","7.0","","0.6","","64","","","","26","","24","","","","100.07","","","","","","NA"
"-63.63","44.71","BEDFORD BASIN","8200573","2022-11-17 14:00","2022","11","17","14:00","","6.8","","0.8","","65","","","","26","","30","","","","100.06","","","","","","NA"
"-63.63","44.71","BEDFORD BASIN","8200573","2022-11-17 15:00","2022","11","17","15:00","","6.5","","-0.4","","61","","","","25","","27","","","","100.04","","","","","","NA"
"-63.63","44.71","BEDFORD BASIN","8200573","2022-11-17 16:00","2022","11","17","16:00","","5.9","","-0.7","","63","","","","25","","33","","","","100.09","","","","","","NA"
"-63.63","44.71","BEDFORD BASIN","8200573","2022-11-17 17:00","2022","11","17","17:00","","5.2","","-0.4","","67","","","","26","","36","","","","100.12","","","","","","NA"
"-63.63","44.71","BEDFORD BASIN","8200573","2022-11-17 18:00","2022","11","17","18:00","","4.4","","-0.8","","69","","","","26","","30","","","","100.20","","","","","","NA"
"-63.63","44.71","BEDFORD BASIN","8200573","2022-11-17 19:00","2022","11","17","19:00","","4.0","","-3.3","","59","","","","27","","37","","","","100.27","","","","","","NA"
"-63.63","44.71","BEDFORD BASIN","8200573","2022-11-17 20:00","2022","11","17","20:00","","3.2","","-3.6","","61","","","","26","","23","","","","100.35","","","","","","NA"
"-63.63","44.71","BEDFORD BASIN","8200573","2022-11-17 21:00","2022","11","17","21:00","","2.8","","-2.9","","66","","","","28","","21","","","","100.43","","","","","","NA"
"-63.63","44.71","BEDFORD BASIN","8200573","2022-11-17 22:00","2022","11","17","22:00","","2.3","","-1.8","","74","","","","26","","20","","","","100.49","","","","","","NA"
"-63.63","44.71","BEDFORD BASIN","8200573","2022-11-17 23:00","2022","11","17","23:00","","2.5","","-2.3","","71","","","","28","","21","","","","100.52","","","","","","NA"
"-63.63","44.71","BEDFORD BASIN","8200573","2022-11-18 00:00","2022","11","18","00:00","","2.2","","-1.4","","77","","","","28","","25","","","","100.57","","","","","","NA"
"-63.63","44.71","BEDFORD BASIN","8200573","2022-11-18 01:00","2022","11","18","01:00","","2.1","","-1.4","","78","","","","30","","23","","","","100.58","","","","","","NA"
"-63.63","44.71","BEDFORD BASIN","8200573","2022-11-18 02:00","2022","11","18","02:00","","2.0","","-1.7","","76","","","","27","","22","","","","100.68","","","","","","NA"
"-63.63","44.71","BEDFORD BASIN","8200573","2022-11-18 03:00","2022","11","18","03:00","","1.5","","-2.7","","74","","","","27","","22","","","","100.77","","","","","","NA"
"-63.63","44.71","BEDFORD BASIN","8200573","2022-11-18 04:00","2022","11","18","04:00","","1.1","","-3.1","","74","","","","26","","16","","","","100.83","","","","","","NA"
"-63.63","44.71","BEDFORD BASIN","8200573","2022-11-18 05:00","2022","11","18","05:00","","0.7","","-3.0","","76","","","","25","","17","","","","100.91","","","","","","NA"
"-63.63","44.71","BEDFORD BASIN","8200573","2022-11-18 06:00","2022","11","18","06:00","","1.0","","-3.0","","75","","","","26","","22","","","","100.98","","","","","","NA"
"-63.63","44.71","BEDFORD BASIN","8200573","2022-11-18 07:00","2022","11","18","07:00","","1.2","","-3.6","","70","","","","25","","23","","","","101.04","","","","","","NA"
"-63.63","44.71","BEDFORD BASIN","8200573","2022-11-18 08:00","2022","11","18","08:00","","1.5","","-3.9","","67","","","","25","","22","","","","101.13","","","","","","NA"
"-63.63","44.71","BEDFORD BASIN","8200573","2022-11-18 09:00","2022","11","18","09:00","","1.8","","-4.3","","64","","","","26","","26","","","","101.19","","","","","","NA"
"-63.63","44.71","BEDFORD BASIN","8200573","2022-11-18 10:00","2022","11","18","10:00","","1.9","","-5.1","","60","","","","27","","29","","","","101.22","","","","","","NA"
"-63.63","44.71","BEDFORD BASIN","8200573","2022-11-18 11:00","2022","11","18","11:00","","2.4","","-4.5","","60","","","","26","","35","","","","101.28","","","","","","NA"
"-63.63","44.71","BEDFORD BASIN","8200573","2022-11-18 12:00","2022","11","18","12:00","","2.5","","-4.0","","62","","","","27","","31","","","","101.29","","","","","","NA"
"-63.63","44.71","BEDFORD BASIN","8200573","2022-11-18 13:00","2022","11","18","13:00","","3.7","","-3.1","","61","","","","28","","32","","","","101.27","","","","","","NA"
"-63.63","44.71","BEDFORD BASIN","8200573","2022-11-18 14:00","2022","11","18","14:00","","4.1","","-3.4","","58","","","","28","","27","","","","101.28","","","","","","NA"
"-63.63","44.71","BEDFORD BASIN","8200573","2022-11-18 15:00","2022","11","18","15:00","","4.2","","-3.0","","59","","","","26","","28","","","","101.29","","","","","","NA"
"-63.63","44.71","BEDFORD BASIN","8200573","2022-11-18 16:00","2022","11","18","16:00","","4.3","","-3.9","","55","","","","27","","22","","","","101.34","","","","","","NA"
"-63.63","44.71","BEDFORD BASIN","8200573","2022-11-18 17:00","2022","11","18","17:00","","3.3","","-5.2","","54","","","","27","","16","","","","101.40","","","","","","NA"
"-63.63","44.71","BEDFORD BASIN","8200573","2022-11-18 18:00","2022","11","18","18:00","","3.0","","-4.9","","56","","","","26","","16","","","","101.46","","","","","","NA"
"-63.63","44.71","BEDFORD BASIN","8200573","2022-11-18 19:00","2022","11","18","19:00","","1.2","","-5.5","","61","","","","33","","6","","","","101.50","","","","","","NA"
"-63.63","44.71","BEDFORD BASIN","8200573","2022-11-18 20:00","2022","11","18","20:00","","0.8","","-4.2","","69","","","","","","0","","","","101.55","","","","","","NA"
"-63.63","44.71","BEDFORD BASIN","8200573","2022-11-18 21:00","2022","11","18","21:00","","1.6","","-3.8","","68","","","","22","","5","","","","101.53","","","","","","NA"
"-63.63","44.71","BEDFORD BASIN","8200573","2022-11-18 22:00","2022","11","18","22:00","","1.9","","-2.1","","75","","","","","","0","","","","101.53","","","","","","NA"
"-63.63","44.71","BEDFORD BASIN","8200573","2022-11-18 23:00","2022","11","18","23:00","","2.9","","-0.1","","80","","","","27","","16","","","","101.51","","","","","","NA"
"-63.63","44.71","BEDFORD BASIN","8200573","2022-11-19 00:00","2022","11","19","00:00","","2.6","","-0.1","","83","","","","28","","13","","","","101.53","","","","","","NA"
"-63.63","44.71","BEDFORD BASIN","8200573","2022-11-19 01:00","2022","11","19","01:00","","1.0","","-1.0","","87","","","","34","","7","","","","101.53","","","","","","NA"
"-63.63","44.71","BEDFORD BASIN","8200573","2022-11-19 02:00","2022","11","19","02:00","","0.7","","-1.0","","88","","","","36","","5","","","","101.54","","","","","","NA"
"-63.63","44.71","BEDFORD BASIN","8200573","2022-11-19 03:00","2022","11","19","03:00","","0.2","","-1.1","","90","","","","","","0","","","","101.62","","","","","","NA"
"-63.63","44.71","BEDFORD BASIN","8200573","2022-11-19 04:00","2022","11","19","04:00","","-0.7","","-2.2","","89","","","","","","0","","","","101.63","","","","","","NA"
"-63.63","44.71","BEDFORD BASIN","8200573","2022-11-19 05:00","2022","11","19","05:00","","-0.4","","-1.4","","93","","","","32","","6","","","","101.69","","","","-2","","NA"
"-63.63","44.71","BEDFORD BASIN","8200573","2022-11-19 06:00","2022","11","19","06:00","","-0.8","","-1.4","","95","","","","33","","3","","","","101.80","","","","-2","","NA"
"-63.63","44.71","BEDFORD BASIN","8200573","2022-11-19 07:00","2022","11","19","07:00","","-0.8","","-1.6","","95","","","","","","0","","","","101.86","","","","","","NA"
"-63.63","44.71","BEDFORD BASIN","8200573","2022-11-19 08:00","2022","11","19","08:00","","1.4","","-1.3","","82","","","","","","0","","","","101.95","","","","","","NA"
"-63.63","44.71","BEDFORD BASIN","8200573","2022-11-19 09:00","2022","11","19","09:00","","2.8","","0.0","","82","","","","32","","3","","","","102.00","","","","","","NA"
"-63.63","44.71","BEDFORD BASIN","8200573","2022-11-19 10:00","2022","11","19","10:00","","3.2","","-0.4","","77","","","","23","","10","","","","102.05","","","","","","NA"
"-63.63","44.71","BEDFORD BASIN","8200573","2022-11-19 11:00","2022","11","19","11:00","","4.6","","-1.4","","65","","","","24","","15","","","","102.05","","","","","","NA"
"-63.63","44.71","BEDFORD BASIN","8200573","2022-11-19 12:00","2022","11","19","12:00","","5.0","","-2.3","","59","","","","22","","16","","","","102.04","","","","","","NA"
"-63.63","44.71","BEDFORD BASIN","8200573","2022-11-19 13:00","2022","11","19","13:00","","5.4","","-3.2","","54","","","","23","","20","","","","102.03","","","","","","NA"
"-63.63","44.71","BEDFORD BASIN","8200573","2022-11-19 14:00","2022","11","19","14:00","","6.3","","-3.6","","49","","","","24","","18","","","","101.99","","","","","","NA"
"-63.63","44.71","BEDFORD BASIN","8200573","2022-11-19 15:00","2022","11","19","15:00","","6.6","","-4.0","","47","","","","23","","12","","","","101.98","","","","","","NA"
"-63.63","44.71","BEDFORD BASIN","8200573","2022-11-19 16:00","2022","11","19","16:00","","6.0","","-3.2","","52","","","","21","","18","","","","102.03","","","","","","NA"
"-63.63","44.71","BEDFORD BASIN","8200573","2022-11-19 17:00","2022","11","19","17:00","","5.6","","-3.0","","54","","","","17","","12","","","","102.00","","","","","","NA"
"-63.63","44.71","BEDFORD BASIN","8200573","2022-11-19 18:00","2022","11","19","18:00","","5.4","","-0.8","","64","","","","19","","15","","","","102.02","","","","","","NA"
"-63.63","44.71","BEDFORD BASIN","8200573","2022-11-19 19:00","2022","11","19","19:00","","4.1","","0.4","","77","","","","21","","4","","","","102.01","","","","","","NA"
"-63.63","44.71","BEDFORD BASIN","8200573","2022-11-19 20:00","2022","11","19","20:00","","3.3","","1.0","","85","","","","8","","3","","","","101.99","","","","","","NA"
"-63.63","44.71","BEDFORD BASIN","8200573","2022-11-19 21:00","2022","11","19","21:00","","2.9","","0.6","","85","","","","","","0","","","","101.98","","","","","","NA"
"-63.63","44.71","BEDFORD BASIN","8200573","2022-11-19 22:00","2022","11","19","22:00","","3.3","","1.5","","88","","","","9","","7","","","","101.92","","","","","","NA"
"-63.63","44.71","BEDFORD BASIN","8200573","2022-11-19 23:00","2022","11","19","23:00","","2.7","","1.5","","92","","","","","","0","","","","101.80","","","","","","NA"
"-63.63","44.71","BEDFORD BASIN","8200573","2022-11-20 00:00","2022","11","20","00:00","","2.9","","2.2","","95","","","","","","0","","","","101.78","","","","","","NA"
"-63.63","44.71","BEDFORD BASIN","8200573","2022-11-20 01:00","2022","11","20","01:00","","3.4","","2.7","","95","","","","","","0","","","","101.70","","","","","","NA"
"-63.63","44.71","BEDFORD BASIN","8200573","2022-11-20 02:00","2022","11","20","02:00","","4.5","","2.5","","87","","","","10","","7","","","","101.60","","","","","","NA"
"-63.63","44.71","BEDFORD BASIN","8200573","2022-11-20 03:00","2022","11","20","03:00","","4.2","","2.8","","90","","","","8","","10","","","","101.51","","","","","","NA"
"-63.63","44.71","BEDFORD BASIN","8200573","2022-11-20 04:00","2022","11","20","04:00","","4.2","","3.1","","93","","","","10","","5","","","","101.39","","","","","","NA"
"-63.63","44.71","BEDFORD BASIN","8200573","2022-11-20 05:00","2022","11","20","05:00","","3.3","","2.5","","95","","","","6","","6","","","","101.26","","","","","","NA"
"-63.63","44.71","BEDFORD BASIN","8200573","2022-11-20 06:00","2022","11","20","06:00","","3.0","","2.6","","97","","","","5","","7","","","","101.19","","","","","","NA"
"-63.63","44.71","BEDFORD BASIN","8200573","2022-11-20 07:00","2022","11","20","07:00","","2.8","","2.4","","97","","","","","","0","","","","101.04","","","","","","NA"
"-63.63","44.71","BEDFORD BASIN","8200573","2022-11-20 08:00","2022","11","20","08:00","","4.1","","3.5","","96","","","","14","","5","","","","100.93","","","","","","NA"
"-63.63","44.71","BEDFORD BASIN","8200573","2022-11-20 09:00","2022","11","20","09:00","","5.6","","2.8","","82","","","","22","","21","","","","100.96","","","","","","NA"
"-63.63","44.71","BEDFORD BASIN","8200573","2022-11-20 10:00","2022","11","20","10:00","","5.7","","1.1","","72","","","","22","","22","","","","100.92","","","","","","NA"
"-63.63","44.71","BEDFORD BASIN","8200573","2022-11-20 11:00","2022","11","20","11:00","","6.1","","-0.1","","65","","","","23","","23","","","","100.81","","","","","","NA"
"-63.63","44.71","BEDFORD BASIN","8200573","2022-11-20 12:00","2022","11","20","12:00","","6.7","","-3.3","","49","","","","22","","23","","","","100.62","","","","","","NA"
"-63.63","44.71","BEDFORD BASIN","8200573","2022-11-20 13:00","2022","11","20","13:00","","7.1","","-2.8","","49","","","","23","","22","","","","100.44","","","","","","NA"
"-63.63","44.71","BEDFORD BASIN","8200573","2022-11-20 14:00","2022","11","20","14:00","","7.1","","-2.8","","49","","","","24","","27","","","","100.34","","","","","","NA"
"-63.63","44.71","BEDFORD BASIN","8200573","2022-11-20 15:00","2022","11","20","15:00","","6.7","","-2.3","","53","","","","22","","27","","","","100.23","","","","","","NA"
"-63.63","44.71","BEDFORD BASIN","8200573","2022-11-20 16:00","2022","11","20","16:00","","6.2","","-0.5","","62","","","","23","","27","","","","100.14","","","","","","NA"
"-63.63","44.71","BEDFORD BASIN","8200573","2022-11-20 17:00","2022","11","20","17:00","","3.4","","0.9","","84","","","","26","","26","","","","100.17","","","","","","NA"
"-63.63","44.71","BEDFORD BASIN","8200573","2022-11-20 18:00","2022","11","20","18:00","","2.3","","0.1","","86","","","","28","","29","","","","100.26","","","","","","NA"
"-63.63","44.71","BEDFORD BASIN","8200573","2022-11-20 19:00","2022","11","20","19:00","","1.5","","-1.1","","83","","","","27","","28","","","","100.37","","","","","","NA"
"-63.63","44.71","BEDFORD BASIN","8200573","2022-11-20 20:00","2022","11","20","20:00","","1.2","","-2.3","","78","","","","27","","35","","","","100.46","","","","","","NA"
"-63.63","44.71","BEDFORD BASIN","8200573","2022-11-20 21:00","2022","11","20","21:00","","0.4","","-2.3","","82","","","","26","","27","","","","100.53","","","","","","NA"
"-63.63","44.71","BEDFORD BASIN","8200573","2022-11-20 22:00","2022","11","20","22:00","","-0.1","","-2.2","","86","","","","27","","29","","","","100.59","","","","-6","","NA"
"-63.63","44.71","BEDFORD BASIN","8200573","2022-11-20 23:00","2022","11","20","23:00","","-0.5","","-2.7","","85","","","","26","","30","","","","100.62","","","","-7","","NA"
"-63.63","44.71","BEDFORD BASIN","8200573","2022-11-21 00:00","2022","11","21","00:00","","-0.3","","-4.3","","74","","","","27","","32","","","","100.72","","","","-7","","NA"
"-63.63","44.71","BEDFORD BASIN","8200573","2022-11-21 01:00","2022","11","21","01:00","","-0.7","","-4.7","","75","","","","26","","32","","","","100.80","","","","-8","","NA"
"-63.63","44.71","BEDFORD BASIN","8200573","2022-11-21 02:00","2022","11","21","02:00","","-1.2","","-4.4","","78","","","","26","","38","","","","100.88","","","","-9","","NA"
"-63.63","44.71","BEDFORD BASIN","8200573","2022-11-21 03:00","2022","11","21","03:00","","-1.7","","-5.0","","78","","","","26","","34","","","","101.02","","","","-9","","NA"
"-63.63","44.71","BEDFORD BASIN","8200573","2022-11-21 04:00","2022","11","21","04:00","","-2.3","","-4.1","","88","","","","27","","30","","","","101.13","","","","-9","","NA"
"-63.63","44.71","BEDFORD BASIN","8200573","2022-11-21 05:00","2022","11","21","05:00","","-1.8","","-3.7","","87","","","","27","","33","","","","101.24","","","","-9","","NA"
"-63.63","44.71","BEDFORD BASIN","8200573","2022-11-21 06:00","2022","11","21","06:00","","-1.6","","-4.7","","79","","","","28","","35","","","","101.42","","","","-9","","NA"
"-63.63","44.71","BEDFORD BASIN","8200573","2022-11-21 07:00","2022","11","21","07:00","","-1.8","","-5.5","","76","","","","27","","37","","","","101.57","","","","-10","","NA"
"-63.63","44.71","BEDFORD BASIN","8200573","2022-11-21 08:00","2022","11","21","08:00","","-1.7","","-4.6","","81","","","","27","","38","","","","101.74","","","","-9","","NA"
"-63.63","44.71","BEDFORD BASIN","8200573","2022-11-21 09:00","2022","11","21","09:00","","-1.5","","-5.5","","74","","","","28","","41","","","","101.92","","","","-9","","NA"
"-63.63","44.71","BEDFORD BASIN","8200573","2022-11-21 10:00","2022","11","21","10:00","","-0.9","","-5.4","","71","","","","27","","37","","","","101.97","","","","-8","","NA"
"-63.63","44.71","BEDFORD BASIN","8200573","2022-11-21 11:00","2022","11","21","11:00","","-0.8","","-5.7","","69","","","","27","","35","","","","102.13","","","","-8","","NA"
"-63.63","44.71","BEDFORD BASIN","8200573","2022-11-21 12:00","2022","11","21","12:00","","-0.1","","-6.0","","64","","","","27","","31","","","","102.16","","","","-7","","NA"
"-63.63","44.71","BEDFORD BASIN","8200573","2022-11-21 13:00","2022","11","21","13:00","","0.8","","-6.0","","60","","","","29","","33","","","","102.15","","","","","","NA"
"-63.63","44.71","BEDFORD BASIN","8200573","2022-11-21 14:00","2022","11","21","14:00","","1.2","","-6.8","","55","","","","27","","28","","","","102.17","","","","","","NA"
"-63.63","44.71","BEDFORD BASIN","8200573","2022-11-21 15:00","2022","11","21","15:00","","1.1","","-5.8","","60","","","","26","","29","","","","102.21","","","","","","NA"
"-63.63","44.71","BEDFORD BASIN","8200573","2022-11-21 16:00","2022","11","21","16:00","","1.0","","-5.6","","61","","","","26","","18","","","","102.25","","","","","","NA"
"-63.63","44.71","BEDFORD BASIN","8200573","2022-11-21 17:00","2022","11","21","17:00","","0.3","","-5.2","","67","","","","26","","19","","","","102.27","","","","","","NA"
"-63.63","44.71","BEDFORD BASIN","8200573","2022-11-21 18:00","2022","11","21","18:00","","-0.5","","-5.2","","70","","","","27","","20","","","","102.28","","","","-6","","NA"
"-63.63","44.71","BEDFORD BASIN","8200573","2022-11-21 19:00","2022","11","21","19:00","","-1.2","","-5.7","","71","","","","25","","13","","","","102.30","","","","-5","","NA"
"-63.63","44.71","BEDFORD BASIN","8200573","2022-11-21 20:00","2022","11","21","20:00","","-1.1","","-5.4","","72","","","","22","","7","","","","102.26","","","","-4","","NA"
"-63.63","44.71","BEDFORD BASIN","8200573","2022-11-21 21:00","2022","11","21","21:00","","-0.1","","-5.2","","69","","","","23","","14","","","","102.17","","","","-4","","NA"
"-63.63","44.71","BEDFORD BASIN","8200573","2022-11-21 22:00","2022","11","21","22:00","","0.7","","-5.0","","66","","","","20","","12","","","","102.07","","","","","","NA"
"-63.63","44.71","BEDFORD BASIN","8200573","2022-11-21 23:00","2022","11","21","23:00","","2.7","","-2.3","","70","","","","23","","20","","","","101.99","","","","","","NA"
"-63.63","44.71","BEDFORD BASIN","8200573","2022-11-22 00:00","2022","11","22","00:00","","4.1","","-1.3","","68","","","","22","","28","","","","101.84","","","","","","NA"
"-63.63","44.71","BEDFORD BASIN","8200573","2022-11-22 01:00","2022","11","22","01:00","","5.0","","0.1","","71","","","","21","","28","","","","101.67","","","","","","NA"
"-63.63","44.71","BEDFORD BASIN","8200573","2022-11-22 02:00","2022","11","22","02:00","","6.2","","2.1","","75","","","","21","","31","","","","101.51","","","","","","NA"
"-63.63","44.71","BEDFORD BASIN","8200573","2022-11-22 03:00","2022","11","22","03:00","","7.0","","3.6","","79","","","","21","","32","","","","101.34","","","","","","NA"
"-63.63","44.71","BEDFORD BASIN","8200573","2022-11-22 04:00","2022","11","22","04:00","","6.2","","3.3","","82","","","","25","","38","","","","101.28","","","","","","NA"
"-63.63","44.71","BEDFORD BASIN","8200573","2022-11-22 05:00","2022","11","22","05:00","","5.8","","2.4","","79","","","","25","","35","","","","101.20","","","","","","NA"
"-63.63","44.71","BEDFORD BASIN","8200573","2022-11-22 06:00","2022","11","22","06:00","","4.7","","2.3","","84","","","","27","","38","","","","101.34","","","","","","NA"
"-63.63","44.71","BEDFORD BASIN","8200573","2022-11-22 07:00","2022","11","22","07:00","","4.1","","1.2","","82","","","","27","","22","","","","101.45","","","","","","NA"
"-63.63","44.71","BEDFORD BASIN","8200573","2022-11-22 08:00","2022","11","22","08:00","","4.1","","0.4","","77","","","","27","","24","","","","101.59","","","","","","NA"
"-63.63","44.71","BEDFORD BASIN","8200573","2022-11-22 09:00","2022","11","22","09:00","","4.4","","-1.0","","68","","","","29","","37","","","","101.74","","","","","","NA"
"-63.63","44.71","BEDFORD BASIN","8200573","2022-11-22 10:00","2022","11","22","10:00","","4.5","","-2.4","","61","","","","30","","41","","","","101.87","","","","","","NA"
"-63.63","44.71","BEDFORD BASIN","8200573","2022-11-22 11:00","2022","11","22","11:00","","4.8","","-2.9","","57","","","","30","","37","","","","101.92","","","","","","NA"
"-63.63","44.71","BEDFORD BASIN","8200573","2022-11-22 12:00","2022","11","22","12:00","","4.8","","-4.2","","52","","","","29","","36","","","","102.00","","","","","","NA"
"-63.63","44.71","BEDFORD BASIN","8200573","2022-11-22 13:00","2022","11","22","13:00","","4.6","","-4.3","","52","","","","28","","34","","","","102.04","","","","","","NA"
"-63.63","44.71","BEDFORD BASIN","8200573","2022-11-22 14:00","2022","11","22","14:00","","4.7","","-4.5","","51","","","","29","","35","","","","102.07","","","","","","NA"
"-63.63","44.71","BEDFORD BASIN","8200573","2022-11-22 15:00","2022","11","22","15:00","","4.8","","-4.3","","52","","","","29","","30","","","","102.12","","","","","","NA"
"-63.63","44.71","BEDFORD BASIN","8200573","2022-11-22 16:00","2022","11","22","16:00","","4.6","","-4.5","","52","","","","29","","22","","","","102.19","","","","","","NA"
"-63.63","44.71","BEDFORD BASIN","8200573","2022-11-22 17:00","2022","11","22","17:00","","3.5","","-4.4","","56","","","","28","","19","","","","102.24","","","","","","NA"
"-63.63","44.71","BEDFORD BASIN","8200573","2022-11-22 18:00","2022","11","22","18:00","","2.9","","-3.4","","63","","","","28","","11","","","","102.31","","","","","","NA"
"-63.63","44.71","BEDFORD BASIN","8200573","2022-11-22 19:00","2022","11","22","19:00","","1.6","","-3.7","","68","","","","31","","5","","","","102.31","","","","","","NA"
"-63.63","44.71","BEDFORD BASIN","8200573","2022-11-22 20:00","2022","11","22","20:00","","0.5","","-4.2","","71","","","","33","","4","","","","102.31","","","","","","NA"
"-63.63","44.71","BEDFORD BASIN","8200573","2022-11-22 21:00","2022","11","22","21:00","","1.2","","-2.6","","76","","","","","","0","","","","102.29","","","","","","NA"
"-63.63","44.71","BEDFORD BASIN","8200573","2022-11-22 22:00","2022","11","22","22:00","","1.0","","-3.2","","74","","","","","","0","","","","102.17","","","","","","NA"
"-63.63","44.71","BEDFORD BASIN","8200573","2022-11-22 23:00","2022","11","22","23:00","","0.5","","-2.5","","80","","","","","","0","","","","102.11","","","","","","NA"
"-63.63","44.71","BEDFORD BASIN","8200573","2022-11-23 00:00","2022","11","23","00:00","","0.3","","-2.5","","81","","","","","","0","","","","102.07","","","","","","NA"
"-63.63","44.71","BEDFORD BASIN","8200573","2022-11-23 01:00","2022","11","23","01:00","","0.9","","-2.5","","78","","","","","","0","","","","102.02","","","","","","NA"
"-63.63","44.71","BEDFORD BASIN","8200573","2022-11-23 02:00","2022","11","23","02:00","","1.2","","-1.2","","84","","","","25","","4","","","","101.93","","","","","","NA"
"-63.63","44.71","BEDFORD BASIN","8200573","2022-11-23 03:00","2022","11","23","03:00","","1.6","","-1.9","","78","","","","9","","3","","","","101.81","","","","","","NA"
"-63.63","44.71","BEDFORD BASIN","8200573","2022-11-23 04:00","2022","11","23","04:00","","1.6","","-1.6","","79","","","","10","","4","","","","101.68","","","","","","NA"
"-63.63","44.71","BEDFORD BASIN","8200573","2022-11-23 05:00","2022","11","23","05:00","","2.7","","-0.4","","80","","","","24","","4","","","","101.58","","","","","","NA"
"-63.63","44.71","BEDFORD BASIN","8200573","2022-11-23 06:00","2022","11","23","06:00","","2.3","","-0.1","","84","","","","","","0","","","","101.52","","","","","","NA"
"-63.63","44.71","BEDFORD BASIN","8200573","2022-11-23 07:00","2022","11","23","07:00","","2.6","","0.2","","84","","","","","","0","","","","101.47","","","","","","NA"
"-63.63","44.71","BEDFORD BASIN","8200573","2022-11-23 08:00","2022","11","23","08:00","","3.4","","0.2","","79","","","","27","","3","","","","101.44","","","","","","NA"
"-63.63","44.71","BEDFORD BASIN","8200573","2022-11-23 09:00","2022","11","23","09:00","","3.4","","2.0","","91","","","","27","","17","","","","101.51","","","","","","NA"
"-63.63","44.71","BEDFORD BASIN","8200573","2022-11-23 10:00","2022","11","23","10:00","","3.9","","-0.1","","75","","","","31","","28","","","","101.54","","","","","","NA"
"-63.63","44.71","BEDFORD BASIN","8200573","2022-11-23 11:00","2022","11","23","11:00","","4.0","","-2.1","","65","","","","29","","34","","","","101.54","","","","","","NA"
"-63.63","44.71","BEDFORD BASIN","8200573","2022-11-23 12:00","2022","11","23","12:00","","4.4","","-3.8","","55","","","","29","","34","","","","101.50","","","","","","NA"
"-63.63","44.71","BEDFORD BASIN","8200573","2022-11-23 13:00","2022","11","23","13:00","","4.9","","-6.7","","43","","","","31","","28","","","","101.47","","","","","","NA"
"-63.63","44.71","BEDFORD BASIN","8200573","2022-11-23 14:00","2022","11","23","14:00","","5.6","","-6.1","","43","","","","30","","19","","","","101.46","","","","","","NA"
"-63.63","44.71","BEDFORD BASIN","8200573","2022-11-23 15:00","2022","11","23","15:00","","5.5","","-5.7","","44","","","","31","","30","","","","101.48","","","","","","NA"
"-63.63","44.71","BEDFORD BASIN","8200573","2022-11-23 16:00","2022","11","23","16:00","","4.4","","-3.8","","55","","","","31","","25","","","","101.54","","","","","","NA"
"-63.63","44.71","BEDFORD BASIN","8200573","2022-11-23 17:00","2022","11","23","17:00","","4.3","","-3.2","","58","","","","29","","25","","","","101.58","","","","","","NA"
"-63.63","44.71","BEDFORD BASIN","8200573","2022-11-23 18:00","2022","11","23","18:00","","3.8","","-3.0","","62","","","","31","","26","","","","101.65","","","","","","NA"
"-63.63","44.71","BEDFORD BASIN","8200573","2022-11-23 19:00","2022","11","23","19:00","","3.2","","-3.1","","64","","","","30","","35","","","","101.73","","","","","","NA"
"-63.63","44.71","BEDFORD BASIN","8200573","2022-11-23 20:00","2022","11","23","20:00","","1.7","","-5.1","","61","","","","32","","26","","","","101.85","","","","","","NA"
"-63.63","44.71","BEDFORD BASIN","8200573","2022-11-23 21:00","2022","11","23","21:00","","0.8","","-6.3","","59","","","","32","","17","","","","101.94","","","","","","NA"
"-63.63","44.71","BEDFORD BASIN","8200573","2022-11-23 22:00","2022","11","23","22:00","","0.1","","-6.1","","63","","","","32","","22","","","","102.00","","","","","","NA"
"-63.63","44.71","BEDFORD BASIN","8200573","2022-11-23 23:00","2022","11","23","23:00","","-1.3","","-9.8","","52","","","","32","","23","","","","102.10","","","","-7","","NA"
"-63.63","44.71","BEDFORD BASIN","8200573","2022-11-24 00:00","2022","11","24","00:00","","-2.4","","-10.0","","56","","","","32","","19","","","","102.18","","","","-8","","NA"
"-63.63","44.71","BEDFORD BASIN","8200573","2022-11-24 01:00","2022","11","24","01:00","","-3.1","","-10.2","","58","","","","32","","20","","","","102.26","","","","-9","","NA"
"-63.63","44.71","BEDFORD BASIN","8200573","2022-11-24 02:00","2022","11","24","02:00","","-3.8","","-10.6","","59","","","","32","","18","","","","102.29","","","","-10","","NA"
"-63.63","44.71","BEDFORD BASIN","8200573","2022-11-24 03:00","2022","11","24","03:00","","-3.7","","-9.7","","63","","","","31","","19","","","","102.32","","","","-10","","NA"
"-63.63","44.71","BEDFORD BASIN","8200573","2022-11-24 04:00","2022","11","24","04:00","","-4.0","","-9.1","","67","","","","31","","17","","","","102.35","","","","-10","","NA"
"-63.63","44.71","BEDFORD BASIN","8200573","2022-11-24 05:00","2022","11","24","05:00","","-4.4","","-10.1","","64","","","","32","","13","","","","102.34","","","","-9","","NA"
"-63.63","44.71","BEDFORD BASIN","8200573","2022-11-24 06:00","2022","11","24","06:00","","-4.3","","-9.0","","70","","","","32","","13","","","","102.36","","","","-9","","NA"
"-63.63","44.71","BEDFORD BASIN","8200573","2022-11-24 07:00","2022","11","24","07:00","","-4.1","","-9.0","","69","","","","32","","18","","","","102.38","","","","-10","","NA"
"-63.63","44.71","BEDFORD BASIN","8200573","2022-11-24 08:00","2022","11","24","08:00","","-3.4","","-9.0","","65","","","","31","","14","","","","102.42","","","","-8","","NA"
"-63.63","44.71","BEDFORD BASIN","8200573","2022-11-24 09:00","2022","11","24","09:00","","-1.9","","-8.3","","62","","","","31","","18","","","","102.44","","","","-7","","NA"
"-63.63","44.71","BEDFORD BASIN","8200573","2022-11-24 10:00","2022","11","24","10:00","","-0.6","","-7.7","","58","","","","32","","18","","","","102.42","","","","-6","","NA"
"-63.63","44.71","BEDFORD BASIN","8200573","2022-11-24 11:00","2022","11","24","11:00","","0.5","","-7.6","","55","","","","30","","25","","","","102.36","","","","","","NA"
"-63.63","44.71","BEDFORD BASIN","8200573","2022-11-24 12:00","2022","11","24","12:00","","1.0","","-8.2","","50","","","","29","","29","","","","102.24","","","","","","NA"
"-63.63","44.71","BEDFORD BASIN","8200573","2022-11-24 13:00","2022","11","24","13:00","","1.9","","-8.7","","45","","","","28","","33","","","","102.17","","","","","","NA"
"-63.63","44.71","BEDFORD BASIN","8200573","2022-11-24 14:00","2022","11","24","14:00","","2.1","","-9.2","","43","","","","28","","30","","","","102.13","","","","","","NA"
"-63.63","44.71","BEDFORD BASIN","8200573","2022-11-24 15:00","2022","11","24","15:00","","2.1","","-9.5","","42","","","","27","","30","","","","102.09","","","","","","NA"
"-63.63","44.71","BEDFORD BASIN","8200573","2022-11-24 16:00","2022","11","24","16:00","","1.9","","-8.6","","46","","","","29","","33","","","","102.12","","","","","","NA"
"-63.63","44.71","BEDFORD BASIN","8200573","2022-11-24 17:00","2022","11","24","17:00","","1.0","","-6.9","","55","","","","29","","29","","","","102.15","","","","","","NA"
"-63.63","44.71","BEDFORD BASIN","8200573","2022-11-24 18:00","2022","11","24","18:00","","0.4","","-7.9","","53","","","","27","","22","","","","102.19","","","","","","NA"
"-63.63","44.71","BEDFORD BASIN","8200573","2022-11-24 19:00","2022","11","24","19:00","","0.3","","-6.7","","59","","","","29","","20","","","","102.21","","","","","","NA"
"-63.63","44.71","BEDFORD BASIN","8200573","2022-11-24 20:00","2022","11","24","20:00","","0.4","","-5.8","","63","","","","28","","29","","","","102.20","","","","","","NA"
"-63.63","44.71","BEDFORD BASIN","8200573","2022-11-24 21:00","2022","11","24","21:00","","-0.1","","-6.1","","64","","","","31","","15","","","","102.23","","","","-5","","NA"
"-63.63","44.71","BEDFORD BASIN","8200573","2022-11-24 22:00","2022","11","24","22:00","","-0.3","","-7.3","","60","","","","31","","15","","","","102.24","","","","-5","","NA"
"-63.63","44.71","BEDFORD BASIN","8200573","2022-11-24 23:00","2022","11","24","23:00","","-1.6","","-9.4","","55","","","","36","","5","","","","102.22","","","","-3","","NA"
"-63.63","44.71","BEDFORD BASIN","8200573","2022-11-25 00:00","2022","11","25","00:00","","-1.9","","-10.2","","53","","","","33","","7","","","","102.23","","","","-5","","NA"
"-63.63","44.71","BEDFORD BASIN","8200573","2022-11-25 01:00","2022","11","25","01:00","","-2.3","","-10.0","","56","","","","32","","9","","","","102.22","","","","-6","","NA"
"-63.63","44.71","BEDFORD BASIN","8200573","2022-11-25 02:00","2022","11","25","02:00","","-2.1","","-9.6","","56","","","","31","","8","","","","102.20","","","","-5","","NA"
"-63.63","44.71","BEDFORD BASIN","8200573","2022-11-25 03:00","2022","11","25","03:00","","-2.9","","-9.9","","59","","","","34","","5","","","","102.17","","","","-5","","NA"
"-63.63","44.71","BEDFORD BASIN","8200573","2022-11-25 04:00","2022","11","25","04:00","","-2.7","","-9.9","","58","","","","35","","4","","","","102.16","","","","-4","","NA"
"-63.63","44.71","BEDFORD BASIN","8200573","2022-11-25 05:00","2022","11","25","05:00","","-3.6","","-9.2","","65","","","","6","","3","","","","102.15","","","","-5","","NA"
"-63.63","44.71","BEDFORD BASIN","8200573","2022-11-25 06:00","2022","11","25","06:00","","-3.4","","-8.0","","70","","","","7","","5","","","","102.13","","","","-5","","NA"
"-63.63","44.71","BEDFORD BASIN","8200573","2022-11-25 07:00","2022","11","25","07:00","","-2.5","","-7.9","","67","","","","8","","9","","","","102.09","","","","-6","","NA"
"-63.63","44.71","BEDFORD BASIN","8200573","2022-11-25 08:00","2022","11","25","08:00","","-2.2","","-8.1","","64","","","","8","","6","","","","102.03","","","","-5","","NA"
"-63.63","44.71","BEDFORD BASIN","8200573","2022-11-25 09:00","2022","11","25","09:00","","-0.9","","-6.1","","68","","","","8","","7","","","","101.95","","","","-3","","NA"
"-63.63","44.71","BEDFORD BASIN","8200573","2022-11-25 10:00","2022","11","25","10:00","","0.5","","-5.3","","65","","","","10","","5","","","","101.86","","","","","","NA"
"-63.63","44.71","BEDFORD BASIN","8200573","2022-11-25 11:00","2022","11","25","11:00","","2.2","","-3.2","","67","","","","","","0","","","","101.80","","","","","","NA"
"-63.63","44.71","BEDFORD BASIN","8200573","2022-11-25 12:00","2022","11","25","12:00","","4.7","","-0.2","","70","","","","16","","14","","","","101.64","","","","","","NA"
"-63.63","44.71","BEDFORD BASIN","8200573","2022-11-25 13:00","2022","11","25","13:00","","5.6","","1.5","","75","","","","14","","13","","","","101.45","","","","","","NA"
"-63.63","44.71","BEDFORD BASIN","8200573","2022-11-25 14:00","2022","11","25","14:00","","6.3","","3.5","","82","","","","14","","20","","","","101.26","","","","","","NA"
"-63.63","44.71","BEDFORD BASIN","8200573","2022-11-25 15:00","2022","11","25","15:00","","7.2","","4.6","","83","","","","15","","18","","","","101.08","","","","","","NA"
"-63.63","44.71","BEDFORD BASIN","8200573","2022-11-25 16:00","2022","11","25","16:00","","7.9","","5.4","","84","","","","16","","24","","","","101.00","","","","","","NA"
"-63.63","44.71","BEDFORD BASIN","8200573","2022-11-25 17:00","2022","11","25","17:00","","8.0","","5.1","","82","","","","15","","25","","","","100.83","","","","","","NA"
"-63.63","44.71","BEDFORD BASIN","8200573","2022-11-25 18:00","2022","11","25","18:00","","8.2","","5.6","","84","","","","14","","35","","","","100.61","","","","","","NA"
"-63.63","44.71","BEDFORD BASIN","8200573","2022-11-25 19:00","2022","11","25","19:00","","8.7","","6.6","","87","","","","13","","34","","","","100.40","","","","","","NA"
"-63.63","44.71","BEDFORD BASIN","8200573","2022-11-25 20:00","2022","11","25","20:00","","8.8","","7.5","","92","","","","13","","32","","","","100.23","","","","","","NA"
"-63.63","44.71","BEDFORD BASIN","8200573","2022-11-25 21:00","2022","11","25","21:00","","9.0","","8.2","","95","","","","14","","29","","","","100.02","","","","","","NA"
"-63.63","44.71","BEDFORD BASIN","8200573","2022-11-25 22:00","2022","11","25","22:00","","9.0","","8.5","","96","","","","12","","41","","","","99.74","","","","","","NA"
"-63.63","44.71","BEDFORD BASIN","8200573","2022-11-25 23:00","2022","11","25","23:00","","8.6","","7.6","","94","","","","19","","12","","","","99.65","","","","","","NA"
"-63.63","44.71","BEDFORD BASIN","8200573","2022-11-26 00:00","2022","11","26","00:00","","8.4","","8.0","","97","","","","14","","11","","","","99.50","","","","","","NA"
"-63.63","44.71","BEDFORD BASIN","8200573","2022-11-26 01:00","2022","11","26","01:00","","8.3","","7.9","","97","","","","13","","6","","","","99.31","","","","","","NA"
"-63.63","44.71","BEDFORD BASIN","8200573","2022-11-26 02:00","2022","11","26","02:00","","8.1","","7.8","","98","","","","","","0","","","","99.17","","","","","","NA"
"-63.63","44.71","BEDFORD BASIN","8200573","2022-11-26 03:00","2022","11","26","03:00","","7.5","","7.4","","99","","","","29","","12","","","","99.10","","","","","","NA"
"-63.63","44.71","BEDFORD BASIN","8200573","2022-11-26 04:00","2022","11","26","04:00","","6.8","","5.3","","90","","","","30","","29","","","","99.04","","","","","","NA"
"-63.63","44.71","BEDFORD BASIN","8200573","2022-11-26 05:00","2022","11","26","05:00","","5.9","","4.2","","89","","","","30","","24","","","","99.03","","","","","","NA"
"-63.63","44.71","BEDFORD BASIN","8200573","2022-11-26 06:00","2022","11","26","06:00","","5.7","","4.0","","89","","","","30","","27","","","","98.99","","","","","","NA"
"-63.63","44.71","BEDFORD BASIN","8200573","2022-11-26 07:00","2022","11","26","07:00","","5.6","","3.9","","89","","","","30","","30","","","","99.01","","","","","","NA"
"-63.63","44.71","BEDFORD BASIN","8200573","2022-11-26 08:00","2022","11","26","08:00","","5.2","","3.4","","88","","","","30","","29","","","","99.04","","","","","","NA"
"-63.63","44.71","BEDFORD BASIN","8200573","2022-11-26 09:00","2022","11","26","09:00","","4.8","","3.3","","90","","","","30","","36","","","","99.07","","","","","","NA"
"-63.63","44.71","BEDFORD BASIN","8200573","2022-11-26 10:00","2022","11","26","10:00","","4.3","","2.5","","88","","","","31","","37","","","","99.12","","","","","","NA"
"-63.63","44.71","BEDFORD BASIN","8200573","2022-11-26 11:00","2022","11","26","11:00","","4.3","","2.6","","89","","","","31","","37","","","","99.17","","","","","","NA"
"-63.63","44.71","BEDFORD BASIN","8200573","2022-11-26 12:00","2022","11","26","12:00","","4.4","","2.2","","86","","","","31","","44","","","","99.18","","","","","","NA"
"-63.63","44.71","BEDFORD BASIN","8200573","2022-11-26 13:00","2022","11","26","13:00","","4.5","","1.7","","82","","","","32","","42","","","","99.23","","","","","","NA"
"-63.63","44.71","BEDFORD BASIN","8200573","2022-11-26 14:00","2022","11","26","14:00","","4.7","","1.8","","81","","","","32","","47","","","","99.20","","","","","","NA"
"-63.63","44.71","BEDFORD BASIN","8200573","2022-11-26 15:00","2022","11","26","15:00","","4.6","","1.5","","80","","","","32","","59","","","","99.28","","","","","","NA"
"-63.63","44.71","BEDFORD BASIN","8200573","2022-11-26 16:00","2022","11","26","16:00","","4.0","","1.5","","84","","","","32","","45","","","","99.47","","","","","","NA"
"-63.63","44.71","BEDFORD BASIN","8200573","2022-11-26 17:00","2022","11","26","17:00","","3.8","","1.0","","82","","","","32","","42","","","","99.56","","","","","","NA"
"-63.63","44.71","BEDFORD BASIN","8200573","2022-11-26 18:00","2022","11","26","18:00","","3.9","","0.7","","80","","","","32","","41","","","","99.65","","","","","","NA"
"-63.63","44.71","BEDFORD BASIN","8200573","2022-11-26 19:00","2022","11","26","19:00","","3.9","","0.4","","78","","","","32","","46","","","","99.72","","","","","","NA"
"-63.63","44.71","BEDFORD BASIN","8200573","2022-11-26 20:00","2022","11","26","20:00","","4.0","","0.4","","77","","","","32","","39","","","","99.79","","","","","","NA"
"-63.63","44.71","BEDFORD BASIN","8200573","2022-11-26 21:00","2022","11","26","21:00","","3.7","","0.5","","79","","","","31","","49","","","","99.82","","","","","","NA"
"-63.63","44.71","BEDFORD BASIN","8200573","2022-11-26 22:00","2022","11","26","22:00","","3.8","","0.7","","80","","","","32","","33","","","","99.96","","","","","","NA"
"-63.63","44.71","BEDFORD BASIN","8200573","2022-11-26 23:00","2022","11","26","23:00","","3.7","","0.7","","81","","","","32","","27","","","","100.11","","","","","","NA"
"-63.63","44.71","BEDFORD BASIN","8200573","2022-11-27 00:00","2022","11","27","00:00","","3.5","","0.5","","81","","","","31","","32","","","","100.30","","","","","","NA"
"-63.63","44.71","BEDFORD BASIN","8200573","2022-11-27 01:00","2022","11","27","01:00","","3.1","","0.0","","80","","","","31","","33","","","","100.28","","","","","","NA"
"-63.63","44.71","BEDFORD BASIN","8200573","2022-11-27 02:00","2022","11","27","02:00","","2.8","","-0.5","","79","","","","32","","20","","","","100.43","","","","","","NA"
"-63.63","44.71","BEDFORD BASIN","8200573","2022-11-27 03:00","2022","11","27","03:00","","2.3","","-0.9","","79","","","","32","","13","","","","100.50","","","","","","NA"
"-63.63","44.71","BEDFORD BASIN","8200573","2022-11-27 04:00","2022","11","27","04:00","","1.9","","-1.0","","81","","","","32","","15","","","","100.49","","","","","","NA"
"-63.63","44.71","BEDFORD BASIN","8200573","2022-11-27 05:00","2022","11","27","05:00","","1.3","","-1.4","","83","","","","31","","8","","","","100.62","","","","","","NA"
"-63.63","44.71","BEDFORD BASIN","8200573","2022-11-27 06:00","2022","11","27","06:00","","0.9","","-1.7","","83","","","","31","","8","","","","100.62","","","","","","NA"
"-63.63","44.71","BEDFORD BASIN","8200573","2022-11-27 07:00","2022","11","27","07:00","","0.6","","-1.2","","88","","","","32","","9","","","","100.71","","","","","","NA"
"-63.63","44.71","BEDFORD BASIN","8200573","2022-11-27 08:00","2022","11","27","08:00","","1.2","","-1.4","","82","","","","31","","7","","","","100.73","","","","","","NA"
"-63.63","44.71","BEDFORD BASIN","8200573","2022-11-27 09:00","2022","11","27","09:00","","2.4","","-1.7","","74","","","","32","","3","","","","100.75","","","","","","NA"
"-63.63","44.71","BEDFORD BASIN","8200573","2022-11-27 10:00","2022","11","27","10:00","","4.2","","-0.6","","71","","","","29","","14","","","","100.75","","","","","","NA"
"-63.63","44.71","BEDFORD BASIN","8200573","2022-11-27 11:00","2022","11","27","11:00","","5.5","","-0.9","","63","","","","27","","17","","","","100.78","","","","","","NA"
"-63.63","44.71","BEDFORD BASIN","8200573","2022-11-27 12:00","2022","11","27","12:00","","6.9","","0.5","","64","","","","27","","15","","","","100.72","","","","","","NA"
"-63.63","44.71","BEDFORD BASIN","8200573","2022-11-27 13:00","2022","11","27","13:00","","8.5","","0.7","","58","","","","28","","7","","","","100.66","","","","","","NA"
"-63.63","44.71","BEDFORD BASIN","8200573","2022-11-27 14:00","2022","11","27","14:00","","8.4","","1.7","","63","","","","25","","7","","","","100.61","","","","","","NA"
"-63.63","44.71","BEDFORD BASIN","8200573","2022-11-27 15:00","2022","11","27","15:00","","9.3","","2.4","","62","","","","20","","10","","","","100.57","","","","","","NA"
"-63.63","44.71","BEDFORD BASIN","8200573","2022-11-27 16:00","2022","11","27","16:00","","8.3","","2.8","","68","","","","20","","21","","","","100.57","","","","","","NA"
"-63.63","44.71","BEDFORD BASIN","8200573","2022-11-27 17:00","2022","11","27","17:00","","7.1","","3.5","","78","","","","19","","10","","","","100.56","","","","","","NA"
"-63.63","44.71","BEDFORD BASIN","8200573","2022-11-27 18:00","2022","11","27","18:00","","6.4","","3.8","","84","","","","10","","8","","","","100.48","","","","","","NA"
"-63.63","44.71","BEDFORD BASIN","8200573","2022-11-27 19:00","2022","11","27","19:00","","6.4","","4.7","","89","","","","8","","3","","","","100.47","","","","","","NA"
"-63.63","44.71","BEDFORD BASIN","8200573","2022-11-27 20:00","2022","11","27","20:00","","7.5","","6.5","","94","","","","11","","8","","","","100.40","","","","","","NA"
"-63.63","44.71","BEDFORD BASIN","8200573","2022-11-27 21:00","2022","11","27","21:00","","8.5","","7.8","","95","","","","18","","8","","","","100.34","","","","","","NA"
"-63.63","44.71","BEDFORD BASIN","8200573","2022-11-27 22:00","2022","11","27","22:00","","8.9","","7.9","","93","","","","17","","11","","","","100.30","","","","","","NA"
"-63.63","44.71","BEDFORD BASIN","8200573","2022-11-27 23:00","2022","11","27","23:00","","9.0","","7.7","","92","","","","19","","9","","","","100.22","","","","","","NA"
"-63.63","44.71","BEDFORD BASIN","8200573","2022-11-28 00:00","2022","11","28","00:00","","9.2","","8.1","","93","","","","16","","9","","","","100.07","","","","","","NA"
"-63.63","44.71","BEDFORD BASIN","8200573","2022-11-28 01:00","2022","11","28","01:00","","9.1","","8.2","","94","","","","21","","10","","","","100.00","","","","","","NA"
"-63.63","44.71","BEDFORD BASIN","8200573","2022-11-28 02:00","2022","11","28","02:00","","9.1","","8.1","","93","","","","19","","14","","","","99.84","","","","","","NA"
"-63.63","44.71","BEDFORD BASIN","8200573","2022-11-28 03:00","2022","11","28","03:00","","8.4","","8.2","","99","","","","11","","12","","","","99.61","","","","","","NA"
"-63.63","44.71","BEDFORD BASIN","8200573","2022-11-28 04:00","2022","11","28","04:00","","8.5","","8.0","","97","","","","12","","9","","","","99.38","","","","","","NA"
"-63.63","44.71","BEDFORD BASIN","8200573","2022-11-28 05:00","2022","11","28","05:00","","8.5","","8.0","","97","","","","12","","28","","","","99.05","","","","","","NA"
"-63.63","44.71","BEDFORD BASIN","8200573","2022-11-28 06:00","2022","11","28","06:00","","9.2","","8.9","","98","","","","12","","33","","","","98.71","","","","","","NA"
"-63.63","44.71","BEDFORD BASIN","8200573","2022-11-28 07:00","2022","11","28","07:00","","10.6","","10.4","","99","","","","13","","36","","","","98.43","","","","","","NA"
"-63.63","44.71","BEDFORD BASIN","8200573","2022-11-28 08:00","2022","11","28","08:00","","12.3","","11.8","","97","","","","21","","38","","","","98.37","","","","","","NA"
"-63.63","44.71","BEDFORD BASIN","8200573","2022-11-28 09:00","2022","11","28","09:00","","11.9","","10.9","","93","","","","22","","22","","","","98.40","","","","","","NA"
"-63.63","44.71","BEDFORD BASIN","8200573","2022-11-28 10:00","2022","11","28","10:00","","12.3","","10.4","","89","","","","23","","23","","","","98.50","","","","","","NA"
"-63.63","44.71","BEDFORD BASIN","8200573","2022-11-28 11:00","2022","11","28","11:00","","11.7","","10.4","","92","","","","25","","26","","","","98.58","","","","","","NA"
"-63.63","44.71","BEDFORD BASIN","8200573","2022-11-28 12:00","2022","11","28","12:00","","10.7","","8.4","","86","","","","29","","26","","","","98.77","","","","","","NA"
"-63.63","44.71","BEDFORD BASIN","8200573","2022-11-28 13:00","2022","11","28","13:00","","9.0","","7.7","","92","","","","31","","28","","","","98.90","","","","","","NA"
"-63.63","44.71","BEDFORD BASIN","8200573","2022-11-28 14:00","2022","11","28","14:00","","7.9","","6.5","","91","","","","30","","27","","","","99.12","","","","","","NA"
"-63.63","44.71","BEDFORD BASIN","8200573","2022-11-28 15:00","2022","11","28","15:00","","7.4","","5.9","","90","","","","31","","24","","","","99.26","","","","","","NA"
"-63.63","44.71","BEDFORD BASIN","8200573","2022-11-28 16:00","2022","11","28","16:00","","6.4","","4.1","","86","","","","32","","28","","","","99.48","","","","","","NA"
"-63.63","44.71","BEDFORD BASIN","8200573","2022-11-28 17:00","2022","11","28","17:00","","5.4","","3.0","","84","","","","32","","23","","","","99.69","","","","","","NA"
"-63.63","44.71","BEDFORD BASIN","8200573","2022-11-28 18:00","2022","11","28","18:00","","5.2","","2.8","","84","","","","32","","20","","","","99.84","","","","","","NA"
"-63.63","44.71","BEDFORD BASIN","8200573","2022-11-28 19:00","2022","11","28","19:00","","4.8","","2.1","","83","","","","32","","19","","","","100.02","","","","","","NA"
"-63.63","44.71","BEDFORD BASIN","8200573","2022-11-28 20:00","2022","11","28","20:00","","4.2","","2.2","","86","","","","31","","20","","","","100.21","","","","","","NA"
"-63.63","44.71","BEDFORD BASIN","8200573","2022-11-28 21:00","2022","11","28","21:00","","3.9","","1.7","","86","","","","32","","20","","","","100.37","","","","","","NA"
"-63.63","44.71","BEDFORD BASIN","8200573","2022-11-28 22:00","2022","11","28","22:00","","3.7","","1.0","","83","","","","33","","14","","","","100.54","","","","","","NA"
"-63.63","44.71","BEDFORD BASIN","8200573","2022-11-28 23:00","2022","11","28","23:00","","3.2","","1.5","","88","","","","32","","10","","","","100.66","","","","","","NA"
"-63.63","44.71","BEDFORD BASIN","8200573","2022-11-29 00:00","2022","11","29","00:00","","3.7","","1.5","","86","","","","32","","15","","","","100.79","","","","","","NA"
"-63.63","44.71","BEDFORD BASIN","8200573","2022-11-29 01:00","2022","11","29","01:00","","2.8","","1.5","","91","","","","32","","12","","","","100.92","","","","","","NA"
"-63.63","44.71","BEDFORD BASIN","8200573","2022-11-29 02:00","2022","11","29","02:00","","2.2","","-0.1","","85","","","","33","","21","","","","101.09","","","","","","NA"
"-63.63","44.71","BEDFORD BASIN","8200573","2022-11-29 03:00","2022","11","29","03:00","","1.3","","-0.3","","89","","","","34","","19","","","","101.24","","","","","","NA"
"-63.63","44.71","BEDFORD BASIN","8200573","2022-11-29 04:00","2022","11","29","04:00","","1.2","","-2.1","","79","","","","33","","14","","","","101.37","","","","","","NA"
"-63.63","44.71","BEDFORD BASIN","8200573","2022-11-29 05:00","2022","11","29","05:00","","0.8","","-3.6","","72","","","","33","","16","","","","101.49","","","","","","NA"
"-63.63","44.71","BEDFORD BASIN","8200573","2022-11-29 06:00","2022","11","29","06:00","","0.8","","-3.4","","74","","","","33","","14","","","","101.64","","","","","","NA"
"-63.63","44.71","BEDFORD BASIN","8200573","2022-11-29 07:00","2022","11","29","07:00","","-0.3","","-4.8","","72","","","","33","","13","","","","101.78","","","","-4","","NA"
"-63.63","44.71","BEDFORD BASIN","8200573","2022-11-29 08:00","2022","11","29","08:00","","-0.7","","-5.2","","71","","","","33","","16","","","","101.92","","","","-5","","NA"
"-63.63","44.71","BEDFORD BASIN","8200573","2022-11-29 09:00","2022","11","29","09:00","","-0.3","","-5.3","","69","","","","33","","18","","","","102.04","","","","-5","","NA"
"-63.63","44.71","BEDFORD BASIN","8200573","2022-11-29 10:00","2022","11","29","10:00","","0.2","","-5.8","","64","","","","32","","20","","","","102.18","","","","","","NA"
"-63.63","44.71","BEDFORD BASIN","8200573","2022-11-29 11:00","2022","11","29","11:00","","0.9","","-5.3","","63","","","","32","","19","","","","102.25","","","","","","NA"
"-63.63","44.71","BEDFORD BASIN","8200573","2022-11-29 12:00","2022","11","29","12:00","","2.2","","-4.8","","60","","","","31","","15","","","","102.23","","","","","","NA"
"-63.63","44.71","BEDFORD BASIN","8200573","2022-11-29 13:00","2022","11","29","13:00","","2.7","","-5.1","","57","","","","31","","16","","","","102.27","","","","","","NA"
"-63.63","44.71","BEDFORD BASIN","8200573","2022-11-29 14:00","2022","11","29","14:00","","2.7","","-5.2","","56","","","","30","","20","","","","102.30","","","","","","NA"
"-63.63","44.71","BEDFORD BASIN","8200573","2022-11-29 15:00","2022","11","29","15:00","","3.1","","-6.8","","48","","","","33","","14","","","","102.35","","","","","","NA"
"-63.63","44.71","BEDFORD BASIN","8200573","2022-11-29 16:00","2022","11","29","16:00","","2.4","","-5.8","","54","","","","32","","14","","","","102.46","","","","","","NA"
"-63.63","44.71","BEDFORD BASIN","8200573","2022-11-29 17:00","2022","11","29","17:00","","0.4","","-6.6","","60","","","","33","","6","","","","102.56","","","","","","NA"
"-63.63","44.71","BEDFORD BASIN","8200573","2022-11-29 18:00","2022","11","29","18:00","","-0.4","","-6.3","","64","","","","33","","7","","","","102.63","","","","-3","","NA"
"-63.63","44.71","BEDFORD BASIN","8200573","2022-11-29 19:00","2022","11","29","19:00","","-0.8","","-6.4","","66","","","","32","","5","","","","102.72","","","","-2","","NA"
"-63.63","44.71","BEDFORD BASIN","8200573","2022-11-29 20:00","2022","11","29","20:00","","-1.2","","-6.0","","70","","","","2","","7","","","","102.76","","","","-4","","NA"
"-63.63","44.71","BEDFORD BASIN","8200573","2022-11-29 21:00","2022","11","29","21:00","","-1.8","","-6.2","","72","","","","35","","5","","","","102.85","","","","-4","","NA"
"-63.63","44.71","BEDFORD BASIN","8200573","2022-11-29 22:00","2022","11","29","22:00","","-2.2","","-5.3","","79","","","","","","0","","","","102.90","","","","","","NA"
"-63.63","44.71","BEDFORD BASIN","8200573","2022-11-29 23:00","2022","11","29","23:00","","-1.8","","-5.0","","78","","","","","","0","","","","102.91","","","","","","NA"
"-63.63","44.71","BEDFORD BASIN","8200573","2022-11-30 00:00","2022","11","30","00:00","","-2.4","","-5.0","","83","","","","","","0","","","","102.96","","","","","","NA"
"-63.63","44.71","BEDFORD BASIN","8200573","2022-11-30 01:00","2022","11","30","01:00","","-2.8","","-5.1","","84","","","","32","","4","","","","102.97","","","","-4","","NA"
"-63.63","44.71","BEDFORD BASIN","8200573","2022-11-30 02:00","2022","11","30","02:00","","-3.6","","-6.1","","83","","","","","","0","","","","103.02","","","","","","NA"
"-63.63","44.71","BEDFORD BASIN","8200573","2022-11-30 03:00","2022","11","30","03:00","","-3.4","","-4.7","","91","","","","32","","4","","","","103.06","","","","-5","","NA"
"-63.63","44.71","BEDFORD BASIN","8200573","2022-11-30 04:00","2022","11","30","04:00","","-3.2","","-4.6","","90","","","","","","0","","","","103.11","","","","","","NA"
"-63.63","44.71","BEDFORD BASIN","8200573","2022-11-30 05:00","2022","11","30","05:00","","-3.8","","-4.9","","92","","","","","","0","","","","103.16","","","","","","NA"
"-63.63","44.71","BEDFORD BASIN","8200573","2022-11-30 06:00","2022","11","30","06:00","","-4.2","","-5.0","","94","","","","36","","5","","","","103.19","","","","-6","","NA"
"-63.63","44.71","BEDFORD BASIN","8200573","2022-11-30 07:00","2022","11","30","07:00","","-3.7","","-4.4","","95","","","","","","0","","","","103.19","","","","","","NA"
"-63.63","44.71","BEDFORD BASIN","8200573","2022-11-30 08:00","2022","11","30","08:00","","-3.3","","-5.6","","84","","","","","","0","","","","103.17","","","","","","NA"
"-63.63","44.71","BEDFORD BASIN","8200573","2022-11-30 09:00","2022","11","30","09:00","","-0.1","","-5.6","","67","","","","34","","3","","","","103.14","","","","-1","","NA"
"-63.63","44.71","BEDFORD BASIN","8200573","2022-11-30 10:00","2022","11","30","10:00","","0.7","","-5.3","","64","","","","10","","5","","","","103.17","","","","","","NA"
"-63.63","44.71","BEDFORD BASIN","8200573","2022-11-30 11:00","2022","11","30","11:00","","3.6","","-2.9","","62","","","","14","","22","","","","103.12","","","","","","NA"
"-63.63","44.71","BEDFORD BASIN","8200573","2022-11-30 12:00","2022","11","30","12:00","","3.9","","-1.1","","70","","","","14","","26","","","","103.04","","","","","","NA"
"-63.63","44.71","BEDFORD BASIN","8200573","2022-11-30 13:00","2022","11","30","13:00","","4.9","","-0.5","","68","","","","12","","30","","","","102.89","","","","","","NA"
"-63.63","44.71","BEDFORD BASIN","8200573","2022-11-30 14:00","2022","11","30","14:00","","5.4","","0.5","","71","","","","13","","34","","","","102.83","","","","","","NA"
"-63.63","44.71","BEDFORD BASIN","8200573","2022-11-30 15:00","2022","11","30","15:00","","5.8","","1.0","","71","","","","12","","33","","","","102.68","","","","","","NA"
"-63.63","44.71","BEDFORD BASIN","8200573","2022-11-30 16:00","2022","11","30","16:00","","6.2","","1.9","","74","","","","12","","33","","","","102.54","","","","","","NA"
"-63.63","44.71","BEDFORD BASIN","8200573","2022-11-30 17:00","2022","11","30","17:00","","6.7","","3.1","","78","","","","12","","39","","","","102.43","","","","","","NA"
"-63.63","44.71","BEDFORD BASIN","8200573","2022-11-30 18:00","2022","11","30","18:00","","7.4","","4.2","","80","","","","13","","36","","","","102.35","","","","","","NA"
"-63.63","44.71","BEDFORD BASIN","8200573","2022-11-30 19:00","2022","11","30","19:00","","7.9","","5.3","","83","","","","12","","40","","","","102.22","","","","","","NA"
"-63.63","44.71","BEDFORD BASIN","8200573","2022-11-30 20:00","2022","11","30","20:00","","8.5","","6.2","","85","","","","12","","38","","","","102.08","","","","","","NA"
"-63.63","44.71","BEDFORD BASIN","8200573","2022-11-30 21:00","2022","11","30","21:00","","9.3","","6.6","","83","","","","13","","39","","","","101.93","","","","","","NA"
"-63.63","44.71","BEDFORD BASIN","8200573","2022-11-30 22:00","2022","11","30","22:00","","9.6","","6.7","","82","","","","13","","38","","","","101.75","","","","","","NA"
"-63.63","44.71","BEDFORD BASIN","8200573","2022-11-30 23:00","2022","11","30","23:00","","9.6","","7.3","","85","","","","13","","45","","","","101.49","","","","","","NA"
